{
  "features": [
    {
      "geometry": {
        "coordinates": [
          [
            [
              0.0161213,
              51.503391
            ],
            [
              0.0161153,
              51.5033012
            ],
            [
              0.0159715,
              51.5033049
            ],
            [
              0.0159655,
              51.5032151
            ],
            [
              0.0156778,
              51.5032226
            ],
            [
              0.0156718,
              51.5031328
            ],
            [
              0.0153841,
              51.5031402
            ],
            [
              0.01539,
              51.50323
            ],
            [
              0.0152461,
              51.5032337
            ],
            [
              0.0152521,
              51.5033235
            ],
            [
              0.0151082,
              51.5033272
            ],
            [
              0.0150845,
              51.502968
            ],
            [
              0.0158038,
              51.5029495
            ],
            [
              0.0157979,
              51.5028597
            ],
            [
              0.015654,
              51.5028634
            ],
            [
              0.0156481,
              51.5027736
            ],
            [
              0.015792,
              51.5027699
            ],
            [
              0.015786,
              51.5026801
            ],
            [
              0.0162177,
              51.502669
            ],
            [
              0.0162295,
              51.5028486
            ],
            [
              0.0163734,
              51.5028449
            ],
            [
              0.0163793,
              51.5029347
            ],
            [
              0.0165232,
              51.502931
            ],
            [
              0.0165292,
              51.5030208
            ],
            [
              0.016673,
              51.503017
            ],
            [
              0.016679,
              51.5031068
            ],
            [
              0.0163912,
              51.5031142
            ],
            [
              0.0163971,
              51.503204
            ],
            [
              0.016541,
              51.5032003
            ],
            [
              0.016547,
              51.5032901
            ],
            [
              0.0164031,
              51.5032938
            ],
            [
              0.016409,
              51.5033836
            ],
            [
              0.0161213,
              51.503391
            ]
          ],
          [
            [
              0.0161035,
              51.5031217
            ],
            [
              0.0162473,
              51.503118
            ],
            [
              0.0162414,
              51.5030282
            ],
            [
              0.0160975,
              51.5030319
            ],
            [
              0.0161035,
              51.5031217
            ]
          ],
          [
            [
              0.0158098,
              51.5030393
            ],
            [
              0.0159537,
              51.5030356
            ],
            [
              0.0159477,
              51.5029458
            ],
            [
              0.0158038,
              51.5029495
            ],
            [
              0.0158098,
              51.5030393
            ]
          ]
        ],
        "type": "Polygon"
      },
      "id": "change-proposal-1",
      "properties": {
        "area_m2": 4400.0,
        "class": "large_spectral_change_candidate",
        "identity_claim": false,
        "review_required": true
      },
      "type": "Feature"
    },
    {
      "geometry": {
        "coordinates": [
          [
            [
              0.0202877,
              51.5031938
            ],
            [
              0.0202699,
              51.5029244
            ],
            [
              0.020126,
              51.5029281
            ],
            [
              0.0201201,
              51.5028383
            ],
            [
              0.0199762,
              51.502842
            ],
            [
              0.0199703,
              51.5027522
            ],
            [
              0.0198264,
              51.5027559
            ],
            [
              0.0198205,
              51.5026662
            ],
            [
              0.0196766,
              51.5026699
            ],
            [
              0.0196706,
              51.5025801
            ],
            [
              0.0201023,
              51.5025689
            ],
            [
              0.0200963,
              51.5024792
            ],
            [
              0.0203841,
              51.5024717
            ],
            [
              0.020396,
              51.5026513
            ],
            [
              0.0206837,
              51.5026439
            ],
            [
              0.0206778,
              51.5025541
            ],
            [
              0.0208216,
              51.5025504
            ],
            [
              0.0208276,
              51.5026402
            ],
            [
              0.0209715,
              51.5026365
            ],
            [
              0.0209774,
              51.5027263
            ],
            [
              0.0208335,
              51.50273
            ],
            [
              0.0208395,
              51.5028198
            ],
            [
              0.0209833,
              51.5028161
            ],
            [
              0.0209952,
              51.5029957
            ],
            [
              0.0208513,
              51.5029994
            ],
            [
              0.0208454,
              51.5029096
            ],
            [
              0.0207015,
              51.5029133
            ],
            [
              0.0207075,
              51.5030031
            ],
            [
              0.0205636,
              51.5030068
            ],
            [
              0.0205695,
              51.5030966
            ],
            [
              0.0204257,
              51.5031003
            ],
            [
              0.0204316,
              51.5031901
            ],
            [
              0.0202877,
              51.5031938
            ]
          ]
        ],
        "type": "Polygon"
      },
      "id": "change-proposal-2",
      "properties": {
        "area_m2": 3500.0,
        "class": "large_spectral_change_candidate",
        "identity_claim": false,
        "review_required": true
      },
      "type": "Feature"
    },
    {
      "geometry": {
        "coordinates": [
          [
            [
              0.0189691,
              51.502868
            ],
            [
              0.0189632,
              51.5027782
            ],
            [
              0.019107,
              51.5027745
            ],
            [
              0.0190952,
              51.5025949
            ],
            [
              0.0189513,
              51.5025986
            ],
            [
              0.0189335,
              51.5023292
            ],
            [
              0.0192212,
              51.5023218
            ],
            [
              0.0192271,
              51.5024116
            ],
            [
              0.019371,
              51.5024079
            ],
            [
              0.019377,
              51.5024977
            ],
            [
              0.0192331,
              51.5025014
            ],
            [
              0.0192509,
              51.5027708
            ],
            [
              0.0193948,
              51.5027671
            ],
            [
              0.0194007,
              51.5028569
            ],
            [
              0.0189691,
              51.502868
            ]
          ]
        ],
        "type": "Polygon"
      },
      "id": "change-proposal-3",
      "properties": {
        "area_m2": 1200.0,
        "class": "large_spectral_change_candidate",
        "identity_claim": false,
        "review_required": true
      },
      "type": "Feature"
    }
  ],
  "properties": {
    "algorithm_version": "sentinel-2-l2a-change-v1",
    "meaning": "imagery change proposal only; not a data-centre identification"
  },
  "type": "FeatureCollection"
}
