{"features":[{"geometry":{"coordinates":[73.8072666667,18.6467083333],"type":"Point"},"id":"vcc-site-52b1e1c3038357306a39","properties":{"country":"India","geometry_authority_classes":["official_source"],"geometry_precision_scopes":["Official source-reported point used only to locate the PNQ04 project. It is not a project centroid, footprint, parcel, building outline, construction extent, campus boundary, or survey-accuracy claim."],"geometry_scope_classes":["official_source_reported_project_reference_point"],"geometry_type":"Point","geometry_use_scopes":["project_locator"],"horizontal_uncertainty_metres":null,"independent_imagery_verification":false,"name":"AdaniConneX Pune Data Center Campus","newest_status_as_of":"2026-06-01","physical_site_stable_key":"curated:adaniconnex-pune-data-center-campus","project_count":1,"site_id":"vcc-site-52b1e1c3038357306a39","statuses":["under_construction"],"verification_posture":"recent_authoritative_physical_observation_plus_reviewed_site_locator"},"type":"Feature"},{"geometry":{"coordinates":[71.4577083333,51.2067694444],"type":"Point"},"id":"vcc-site-cc8bbdad8c252d9ba4e2","properties":{"country":"Kazakhstan","geometry_authority_classes":["official_source"],"geometry_precision_scopes":["Official site-plan point for a substation within the same data-centre parcel; 500 metre stated uncertainty and not a hall footprint."],"geometry_scope_classes":["same_parcel_infrastructure_reference_point"],"geometry_type":"Point","geometry_use_scopes":["reviewed_site_locator"],"horizontal_uncertainty_metres":500.0,"independent_imagery_verification":false,"name":"Akashi Astana Data Center Campus","newest_status_as_of":"2026-07-21","physical_site_stable_key":"curated:akashi-astana-data-center-campus","project_count":1,"site_id":"vcc-site-cc8bbdad8c252d9ba4e2","statuses":["under_construction"],"verification_posture":"recent_authoritative_physical_observation_plus_reviewed_site_locator"},"type":"Feature"},{"geometry":{"coordinates":[-3.7520406,37.0832838],"type":"Point"},"id":"vcc-site-7e1b680aa925165fe2ef","properties":{"country":"Spain","geometry_authority_classes":["official_source"],"geometry_precision_scopes":["Official project-event locator point used only to locate SP01. The seven-decimal redirect coordinate is preserved as published but is not treated as survey accuracy, parcel geometry, or a project centroid."],"geometry_scope_classes":["official_government_project_event_reference_point"],"geometry_type":"Point","geometry_use_scopes":["project_locator"],"horizontal_uncertainty_metres":null,"independent_imagery_verification":false,"name":"Alto Infrastructure SP01 Granada Data Center Campus","newest_status_as_of":"2026-07-09","physical_site_stable_key":"curated:alto-sp01-granada-data-center-campus","project_count":1,"site_id":"vcc-site-7e1b680aa925165fe2ef","statuses":["under_construction"],"verification_posture":"recent_authoritative_physical_observation_plus_reviewed_site_locator"},"type":"Feature"},{"geometry":{"coordinates":[[[-76.1428118,41.0830166],[-76.1441814,41.0829829],[-76.1442549,41.0846804],[-76.1440297,41.0846859],[-76.144042,41.0849713],[-76.142925,41.0849985],[-76.1429191,41.0848632],[-76.1425013,41.0848735],[-76.1424948,41.0847228],[-76.1428852,41.0847132],[-76.1428118,41.0830166]]],"type":"Polygon"},"id":"vcc-site-b065c16b51237fbb767f","properties":{"country":"United States","geometry_authority_classes":["community_mapped"],"geometry_precision_scopes":["Contributor-mapped polygon for one named and addressed Amazon AWS data-centre building, used only to locate the Salem Township innovation campus. It is not an official campus boundary, the complete campus extent, a parcel, the active-buildout footprint or centroid, a construction extent, a current-building count, or a survey-accuracy claim."],"geometry_scope_classes":["reviewed_openstreetmap_named_addressed_aws_data_centre_building_polygon"],"geometry_type":"Polygon","geometry_use_scopes":["campus_locator"],"horizontal_uncertainty_metres":null,"independent_imagery_verification":false,"name":"Amazon Salem Township Innovation Campus","newest_status_as_of":"2026-07-19","physical_site_stable_key":"curated:amazon-salem-township-innovation-campus","project_count":1,"site_id":"vcc-site-b065c16b51237fbb767f","statuses":["under_construction"],"verification_posture":"recent_authoritative_physical_observation_plus_reviewed_site_locator"},"type":"Feature"},{"geometry":{"coordinates":[24.1814716538,56.933100002],"type":"Point"},"id":"vcc-site-fe9285f72381fc346e86","properties":{"country":"Latvia","geometry_authority_classes":["official_source"],"geometry_precision_scopes":["Current Latvian State Land Service address-register point, facility-specific, with 20 metre stated uncertainty."],"geometry_scope_classes":["facility_address_point"],"geometry_type":"Point","geometry_use_scopes":["reviewed_site_locator"],"horizontal_uncertainty_metres":20.0,"independent_imagery_verification":false,"name":"AST Jāņciems Dispatcher Control and Data Centre","newest_status_as_of":"2026-06-27","physical_site_stable_key":"curated:ast-janciems-dispatcher-control-data-center","project_count":1,"site_id":"vcc-site-fe9285f72381fc346e86","statuses":["shell"],"verification_posture":"recent_authoritative_physical_observation_plus_reviewed_site_locator"},"type":"Feature"},{"geometry":{"coordinates":[[[-22.537237,63.9644636],[-22.5374717,63.964466],[-22.5374623,63.9646422],[-22.5385528,63.9646606],[-22.5385528,63.964719],[-22.5396853,63.9647313],[-22.5397595,63.9637163],[-22.5422813,63.9637795],[-22.542387,63.9626635],[-22.5348303,63.9625208],[-22.5346769,63.9646457],[-22.5371243,63.9646868],[-22.5371446,63.9644637],[-22.537237,63.9644636]]],"type":"Polygon"},"id":"vcc-site-17f7ed745e789e79ad69","properties":{"country":"Iceland","geometry_authority_classes":["community_mapped"],"geometry_precision_scopes":["The frozen global-open-v3 Polygon is a reviewed named ICE02 campus fence/site locator inherited by the phase-two project through the explicit project_targets relationship. It is not an official, cadastral, or survey boundary; a complete current campus extent; a building footprint; or a Phase 2 footprint."],"geometry_scope_classes":["reviewed_openstreetmap_named_campus_fence"],"geometry_type":"Polygon","geometry_use_scopes":["campus_locator"],"horizontal_uncertainty_metres":null,"independent_imagery_verification":false,"name":"atNorth ICE02 Reykjanesbær Campus","newest_status_as_of":"2026-07-21","physical_site_stable_key":"curated:atnorth-ice02-reykjanesbaer-campus","project_count":1,"site_id":"vcc-site-17f7ed745e789e79ad69","statuses":["under_construction"],"verification_posture":"recent_authoritative_physical_observation_plus_reviewed_site_locator"},"type":"Feature"},{"geometry":{"coordinates":[17.919052862381037,59.42019318407011],"type":"Point"},"id":"vcc-site-b25b924e3e107c2cbaf1","properties":{"country":"Sweden","geometry_authority_classes":["official_source"],"geometry_precision_scopes":["Official municipal project-page point transformed deterministically from EPSG:3011 to EPSG:4326. Decimal precision and sub-nanometre software roundtrip do not imply source survey accuracy."],"geometry_scope_classes":["official_municipal_project_map_reference_point"],"geometry_type":"Point","geometry_use_scopes":["project_locator"],"horizontal_uncertainty_metres":null,"independent_imagery_verification":false,"name":"atNorth SWE02 Stockholm Campus","newest_status_as_of":"2026-06-09","physical_site_stable_key":"curated:atnorth-swe02-stockholm-campus","project_count":1,"site_id":"vcc-site-b25b924e3e107c2cbaf1","statuses":["under_construction"],"verification_posture":"recent_authoritative_physical_observation_plus_reviewed_site_locator"},"type":"Feature"},{"geometry":{"coordinates":[-90.0185,32.2593],"type":"Point"},"id":"vcc-site-6727a9539ece2f19ad23","properties":{"country":"United States","geometry_authority_classes":["official_source"],"geometry_precision_scopes":["First-party Taurus campus location point derived exactly from the published latitude and longitude; not the 329-acre boundary, a parcel, building footprint, measured centroid, or phase-one outline."],"geometry_scope_classes":["first_party_campus_reference_point"],"geometry_type":"Point","geometry_use_scopes":["reviewed_site_locator"],"horizontal_uncertainty_metres":null,"independent_imagery_verification":false,"name":"AVAIO Digital Taurus Data Center Campus","newest_status_as_of":"2026-07-20","physical_site_stable_key":"curated:avaio-taurus-brandon-mississippi-campus","project_count":1,"site_id":"vcc-site-6727a9539ece2f19ad23","statuses":["under_construction"],"verification_posture":"recent_authoritative_physical_observation_plus_reviewed_site_locator"},"type":"Feature"},{"geometry":{"coordinates":[-0.4564361111111111,42.11381388888889],"type":"Point"},"id":"vcc-site-d6e7826cfaef008088a0","properties":{"country":"Spain","geometry_authority_classes":["official_source"],"geometry_precision_scopes":["Official project-report point used only to locate the proposed/current Walqa build. The reported 0.01-arc-second display precision is preserved but is not converted into survey accuracy."],"geometry_scope_classes":["official_source_reported_project_reference_point"],"geometry_type":"Point","geometry_use_scopes":["project_locator"],"horizontal_uncertainty_metres":null,"independent_imagery_verification":false,"name":"AWS Walqa Data Center Campus","newest_status_as_of":"2026-06-25","physical_site_stable_key":"curated:aws-walqa-huesca-data-center","project_count":1,"site_id":"vcc-site-d6e7826cfaef008088a0","statuses":["under_construction"],"verification_posture":"recent_authoritative_physical_observation_plus_reviewed_site_locator"},"type":"Feature"},{"geometry":{"coordinates":[[[12.8294774,64.7134352],[12.8270223,64.7131208],[12.8264743,64.7138575],[12.8270977,64.7142284],[12.83464,64.7150272],[12.8355059,64.7147286],[12.8369632,64.7142288],[12.8370609,64.7141948],[12.8294774,64.7134352]],[[12.83058,64.7139737],[12.8305161,64.7141189],[12.8317474,64.7143081],[12.8320774,64.7137078],[12.8294774,64.7134352],[12.829335,64.7138462],[12.83058,64.7139737]]],"type":"Polygon"},"id":"vcc-site-2d9846dc358cfee26779","properties":{"country":"Norway","geometry_authority_classes":["official_source"],"geometry_precision_scopes":["Exact reviewed Kartverket cadastral polygon for property 5044-50/44, used only to locate the source-linked Bitzero Namsskogan parent campus and inherited by its current power-infrastructure project. It is not a transformer-foundation location, data-hall or building footprint, current-work extent, verified complete campus boundary, security boundary, or survey-accuracy claim."],"geometry_scope_classes":["official_cadastral_parcel_as_campus_locator"],"geometry_type":"Polygon","geometry_use_scopes":["campus_locator"],"horizontal_uncertainty_metres":null,"independent_imagery_verification":false,"name":"Bitzero Namsskogan Data Center Campus","newest_status_as_of":"2026-06-15","physical_site_stable_key":"curated:bitzero-namsskogan-data-center-campus","project_count":1,"site_id":"vcc-site-2d9846dc358cfee26779","statuses":["foundations"],"verification_posture":"recent_authoritative_physical_observation_plus_reviewed_site_locator"},"type":"Feature"},{"geometry":{"coordinates":[[[-20.2424228,65.6471629],[-20.2422258,65.6471134],[-20.242524,65.6469114],[-20.2427217,65.6469611],[-20.2427829,65.6469196],[-20.2419908,65.6467207],[-20.2421109,65.6466394],[-20.2429032,65.6468383],[-20.2430654,65.6467285],[-20.2427158,65.6466407],[-20.2426733,65.6466695],[-20.2426097,65.6466535],[-20.2426522,65.6466247],[-20.242288,65.6465333],[-20.2423853,65.6464674],[-20.2443817,65.6469687],[-20.244241,65.647064],[-20.2430967,65.6467766],[-20.2429937,65.6468464],[-20.2441455,65.6471355],[-20.2439997,65.6472343],[-20.2428477,65.646945],[-20.2427395,65.6470183],[-20.2438877,65.6473066],[-20.2437529,65.647398],[-20.2426044,65.6471096],[-20.2424867,65.6471893],[-20.2436347,65.6474776],[-20.2435067,65.6475643],[-20.2423729,65.6472797],[-20.2422206,65.6473828],[-20.2436965,65.6477534],[-20.2435048,65.6478832],[-20.242037,65.6475147],[-20.2419126,65.6475989],[-20.2433649,65.6479636],[-20.2431754,65.6480919],[-20.2416256,65.6477028],[-20.2424228,65.6471629]]],"type":"Polygon"},"id":"vcc-site-0ed3e2f5c48bfda417a3","properties":{"country":"Iceland","geometry_authority_classes":["community_mapped"],"geometry_precision_scopes":["Contributor-mapped polygon for a named Borealis building at Blönduós, used only to locate the parent campus. It is not the 2026 expansion boundary, a complete campus boundary, an official parcel or planning boundary, or a current construction-progress extent. A first-party map link that resolves only to the Blönduós town/place is rejected as site geometry."],"geometry_scope_classes":["reviewed_openstreetmap_borealis_blonduos_named_building_polygon"],"geometry_type":"Polygon","geometry_use_scopes":["campus_locator"],"horizontal_uncertainty_metres":null,"independent_imagery_verification":false,"name":"Borealis Blönduós Data Center Campus","newest_status_as_of":"2026-06-23","physical_site_stable_key":"curated:borealis-blonduos-data-center-campus","project_count":1,"site_id":"vcc-site-0ed3e2f5c48bfda417a3","statuses":["under_construction"],"verification_posture":"recent_authoritative_physical_observation_plus_reviewed_site_locator"},"type":"Feature"},{"geometry":{"coordinates":[150.837668,-33.818072],"type":"Point"},"id":"vcc-site-3c1f872aa59b74b065ea","properties":{"country":"Australia","geometry_authority_classes":["official_source"],"geometry_precision_scopes":["Official NSW project-site representative point for the shared Eastern Creek campus; not an EC5 building footprint.","Official NSW project-site representative point for the shared Eastern Creek campus; not an EC6 building footprint."],"geometry_scope_classes":["shared_campus_reference_point"],"geometry_type":"Point","geometry_use_scopes":["reviewed_site_locator"],"horizontal_uncertainty_metres":250.0,"independent_imagery_verification":false,"name":"CDC Eastern Creek Campus","newest_status_as_of":"2026-07-21","physical_site_stable_key":"curated:cdc-eastern-creek-campus","project_count":2,"site_id":"vcc-site-3c1f872aa59b74b065ea","statuses":["under_construction"],"verification_posture":"recent_authoritative_physical_observation_plus_reviewed_site_locator"},"type":"Feature"},{"geometry":{"coordinates":[[[144.7732937,-37.8420833],[144.7732716,-37.8421565],[144.7768969,-37.8429004],[144.7775026,-37.8409504],[144.7754727,-37.8405569],[144.7738625,-37.8402448],[144.7732937,-37.8420833]]],"type":"Polygon"},"id":"vcc-site-0f9ffed73b02dd75c9a5","properties":{"country":"Australia","geometry_authority_classes":["community_mapped"],"geometry_precision_scopes":["Contributor-mapped named development/address polygon used only to locate the parent Laverton campus. It is not the current-build project boundary, a complete campus boundary, an official parcel or planning boundary, a building footprint, a security fence, or a current construction-progress extent."],"geometry_scope_classes":["reviewed_openstreetmap_cdc_laverton_named_development_polygon"],"geometry_type":"Polygon","geometry_use_scopes":["campus_locator"],"horizontal_uncertainty_metres":null,"independent_imagery_verification":false,"name":"CDC Laverton Melbourne Campus","newest_status_as_of":"2026-07-21","physical_site_stable_key":"curated:cdc-laverton-melbourne-campus","project_count":1,"site_id":"vcc-site-0f9ffed73b02dd75c9a5","statuses":["under_construction"],"verification_posture":"recent_authoritative_physical_observation_plus_reviewed_site_locator"},"type":"Feature"},{"geometry":{"coordinates":[[[150.8343349,-33.7214556],[150.8339183,-33.7217959],[150.8333619,-33.7220751],[150.8346877,-33.7252481],[150.8366671,-33.7254934],[150.8372247,-33.7255574],[150.8393697,-33.7259155],[150.839282,-33.722045],[150.8343349,-33.7214556]]],"type":"Polygon"},"id":"vcc-site-37ddc3b143bf9ea08d1c","properties":{"country":"Australia","geometry_authority_classes":["community_mapped"],"geometry_precision_scopes":["The polygon is a contributor-mapped named development outline and the point is only its deterministic longitude-latitude bounding-box midpoint. Neither is a survey, cadastral, planning, parcel, security, building, phase, or current construction boundary. OSM construction tags are retained solely as source context and never provide the selected project's authoritative lifecycle."],"geometry_scope_classes":["community_mapped_named_cdc_marsden_park_campus_development_polygon"],"geometry_type":"Polygon","geometry_use_scopes":["campus_locator"],"horizontal_uncertainty_metres":null,"independent_imagery_verification":false,"name":"CDC Marsden Park Campus","newest_status_as_of":"2026-07-21","physical_site_stable_key":"curated:cdc-marsden-park-campus","project_count":1,"site_id":"vcc-site-37ddc3b143bf9ea08d1c","statuses":["under_construction"],"verification_posture":"recent_authoritative_physical_observation_plus_reviewed_site_locator"},"type":"Feature"},{"geometry":{"coordinates":[[[8.5879405,50.1241653],[8.5881262,50.1247685],[8.5871885,50.1248871],[8.5870028,50.1242839],[8.5879405,50.1241653]]],"type":"Polygon"},"id":"vcc-site-78e17687e90595467a13","properties":{"country":"Germany","geometry_authority_classes":["community_mapped"],"geometry_precision_scopes":["Contributor-mapped polygon for the named Colt FRA3 building, used only as a facility/project locator. It is not an official site or parcel boundary, not the complete campus, and not evidence that the entire mapped building equals the current first-phase build or present construction extent."],"geometry_scope_classes":["reviewed_openstreetmap_colt_fra3_named_building_polygon"],"geometry_type":"Polygon","geometry_use_scopes":["project_locator"],"horizontal_uncertainty_metres":null,"independent_imagery_verification":false,"name":"Colt Frankfurt 3 Sossenheim Campus","newest_status_as_of":"2026-07-19","physical_site_stable_key":"curated:colt-frankfurt3-sossenheim-campus","project_count":1,"site_id":"vcc-site-78e17687e90595467a13","statuses":["under_construction"],"verification_posture":"recent_authoritative_physical_observation_plus_reviewed_site_locator"},"type":"Feature"},{"geometry":{"coordinates":[[[-0.3944683,51.5099543],[-0.3947397,51.5093469],[-0.3936822,51.5091639],[-0.3934383,51.5097099],[-0.3941517,51.5098333],[-0.3941242,51.5098947],[-0.3944683,51.5099543]]],"type":"Polygon"},"id":"vcc-site-b38b02f920b409f27698","properties":{"country":"United Kingdom","geometry_authority_classes":["community_mapped"],"geometry_precision_scopes":["Contributor-mapped polygon for the exact named London 4 building, used only to locate the selected facility-build project. It is not an official building footprint, parcel, complete present or future campus boundary, five-building plan, security boundary, or current construction-progress extent."],"geometry_scope_classes":["community_mapped_named_colt_london4_building_polygon"],"geometry_type":"Polygon","geometry_use_scopes":["project_locator"],"horizontal_uncertainty_metres":null,"independent_imagery_verification":false,"name":"Colt London Hayes Campus","newest_status_as_of":"2026-07-19","physical_site_stable_key":"curated:colt-london-hayes-campus","project_count":1,"site_id":"vcc-site-b38b02f920b409f27698","statuses":["under_construction"],"verification_posture":"recent_authoritative_physical_observation_plus_reviewed_site_locator"},"type":"Feature"},{"geometry":{"coordinates":[[[2.2197853,48.6920453],[2.2185226,48.6914163],[2.2201982,48.6899413],[2.2205419,48.6901251],[2.221442,48.6905817],[2.2197853,48.6920453]]],"type":"Polygon"},"id":"vcc-site-ca2269119237054941e1","properties":{"country":"France","geometry_authority_classes":["official_source"],"geometry_precision_scopes":["Official cadastral project-site parcel polygon used as the PAR2 project boundary. Its representative point is a deterministic planar centroid of the published WGS84 ring and lies inside the polygon; it is not an official cadastral point or survey-accuracy claim."],"geometry_scope_classes":["official_cadastral_project_site_parcel_boundary"],"geometry_type":"Polygon","geometry_use_scopes":["official_boundary"],"horizontal_uncertainty_metres":null,"independent_imagery_verification":false,"name":"Colt Villebon-sur-Yvette Campus","newest_status_as_of":"2026-07-19","physical_site_stable_key":"curated:colt-villebon-sur-yvette-campus","project_count":1,"site_id":"vcc-site-ca2269119237054941e1","statuses":["under_construction"],"verification_posture":"recent_authoritative_physical_observation_plus_official_boundary"},"type":"Feature"},{"geometry":{"coordinates":[[[-104.963184722902,39.7856242412933],[-104.963179734656,39.7863032468357],[-104.963175995665,39.7863414056315],[-104.963165423572,39.7863787939894],[-104.963165323691,39.7863790313089],[-104.963154106409,39.7864175160577],[-104.963150145341,39.7864568432731],[-104.963148623641,39.7866638850603],[-104.963146455246,39.78667993711],[-104.963140269725,39.7866953544454],[-104.963130304737,39.7867095446967],[-104.96311694316,39.7867219626412],[-104.963100698373,39.786732131152],[-104.963082194541,39.7867396595307],[-104.963062142623,39.786744258519],[-104.963041313063,39.7867457514126],[-104.962568186015,39.7867436812468],[-104.962568367245,39.7867189814144],[-104.962547023802,39.7867188876023],[-104.962547810723,39.7866118546995],[-104.962435362935,39.7866113621219],[-104.96241771334,39.786609972382],[-104.962400732488,39.7866060081017],[-104.962391708499,39.7866018525524],[-104.962384652022,39.786595844242],[-104.962380178868,39.7865885075093],[-104.962378679404,39.7865804826228],[-104.962378915748,39.786548454352],[-104.962376287447,39.7865379453045],[-104.962368649095,39.7865290108154],[-104.962359545114,39.7865219062551],[-104.962362761218,39.7860851537574],[-104.962382326547,39.7860852394855],[-104.962382528891,39.786057795425],[-104.96236296357,39.7860577096969],[-104.962366600434,39.7855638174078],[-104.96238581252,39.7855390132134],[-104.962411330955,39.7855178626754],[-104.962475432584,39.7855181418025],[-104.96247563688,39.7854902861421],[-104.962502046009,39.7854856685812],[-104.962529057635,39.7854841974335],[-104.963007903308,39.7854862929751],[-104.96304255837,39.7854890736954],[-104.963075845586,39.7854970140258],[-104.963106487262,39.7855098091853],[-104.96313330725,39.7855269680459],[-104.963155276089,39.7855478319825],[-104.963171550524,39.7855716001546],[-104.96318150587,39.7855973602445],[-104.963184759994,39.7856241234756],[-104.963184759663,39.7856241667059],[-104.963184722902,39.7856242412933]]],"type":"Polygon"},"id":"vcc-site-782c0112e90a5282be53","properties":{"country":"United States","geometry_authority_classes":["official_source"],"geometry_precision_scopes":["Exact Denver tax-parcel polygon whose returned owner is CoreSite Real Estate DE3 LLC; not a building footprint."],"geometry_scope_classes":["tax_parcel_boundary"],"geometry_type":"Polygon","geometry_use_scopes":["official_boundary"],"horizontal_uncertainty_metres":null,"independent_imagery_verification":false,"name":"CoreSite DE3 Race Street Campus","newest_status_as_of":"2026-07-20","physical_site_stable_key":"curated:coresite-de3-race-street-campus","project_count":1,"site_id":"vcc-site-782c0112e90a5282be53","statuses":["under_construction"],"verification_posture":"recent_authoritative_physical_observation_plus_official_boundary"},"type":"Feature"},{"geometry":{"coordinates":[-76.25609093817,40.048690947149],"type":"Point"},"id":"vcc-site-9b9b5ef71cedda52fd47","properties":{"country":"United States","geometry_authority_classes":["official_source"],"geometry_precision_scopes":["Official Census Public_AR_Current address-match point used only to locate the source-linked parent campus. Street-range interpolation can differ from a parcel, building, entrance, or surveyed position. The address identifies the adaptive-reuse property, but the Census point is not the existing shell or Phase 1 footprint."],"geometry_scope_classes":["official_census_address_locator_point"],"geometry_type":"Point","geometry_use_scopes":["campus_locator"],"horizontal_uncertainty_metres":null,"independent_imagery_verification":false,"name":"CoreWeave/Chirisa Lancaster Greenfield Road Campus","newest_status_as_of":"2026-07-22","physical_site_stable_key":"curated:coreweave-chirisa-lancaster-greenfield-road-campus","project_count":1,"site_id":"vcc-site-9b9b5ef71cedda52fd47","statuses":["under_construction"],"verification_posture":"recent_authoritative_physical_observation_plus_reviewed_site_locator"},"type":"Feature"},{"geometry":{"coordinates":[8.5805137288,50.093438822],"type":"Point"},"id":"vcc-site-274ba04f1a143a081314","properties":{"country":"Germany","geometry_authority_classes":["official_source"],"geometry_precision_scopes":["Official-source coordinate for the FF7 L1 permit site/building, used only to locate the current FRA7 development. It is not a building centroid, parcel polygon, two-building campus boundary, current work zone, construction extent, or survey-accuracy claim."],"geometry_scope_classes":["official_source_reported_ff7_l1_reference_point"],"geometry_type":"Point","geometry_use_scopes":["project_locator"],"horizontal_uncertainty_metres":null,"independent_imagery_verification":false,"name":"CyrusOne FRA7 Frankfurt Westside Campus","newest_status_as_of":"2026-06-12","physical_site_stable_key":"curated:cyrusone-fra7-frankfurt-westside-campus","project_count":1,"site_id":"vcc-site-274ba04f1a143a081314","statuses":["under_construction"],"verification_posture":"recent_authoritative_physical_observation_plus_reviewed_site_locator"},"type":"Feature"},{"geometry":{"coordinates":[126.7109,37.518],"type":"Point"},"id":"vcc-site-5750ea0ecd6d7c900211","properties":{"country":"Korea, Republic of","geometry_authority_classes":["official_source"],"geometry_precision_scopes":["The point is the first-party SEL2 facility coordinate and may be spatially offset from SEL3. It is a shared-campus locator only, not a SEL3 project point, campus centroid, footprint, parcel, building outline, construction extent, or boundary."],"geometry_scope_classes":["official_source_reported_adjacent_facility_point_used_as_shared_campus_locator"],"geometry_type":"Point","geometry_use_scopes":["campus_locator"],"horizontal_uncertainty_metres":null,"independent_imagery_verification":false,"name":"Digital Edge Seoul Bupyeong Campus","newest_status_as_of":"2026-07-09","physical_site_stable_key":"curated:digital-edge-seoul-bupyeong-campus","project_count":1,"site_id":"vcc-site-5750ea0ecd6d7c900211","statuses":["under_construction"],"verification_posture":"recent_authoritative_physical_observation_plus_reviewed_site_locator"},"type":"Feature"},{"geometry":{"coordinates":[[[-87.6198363,41.8533672],[-87.6191693,41.8533761],[-87.6191625,41.8530913],[-87.6198307,41.8530824],[-87.6198322,41.8531478],[-87.6198835,41.8531471],[-87.6198843,41.8531823],[-87.6198861,41.8532563],[-87.6198337,41.853257],[-87.6198346,41.8532946],[-87.6198363,41.8533672]]],"type":"Polygon"},"id":"vcc-site-f806b9a83ed45bed3268","properties":{"country":"United States","geometry_authority_classes":["community_mapped"],"geometry_precision_scopes":["Contributor-mapped polygon for the existing American Book Company Building at 330 East Cermak Road, used only to locate the Digital Realty current facility-build project. It is not the project boundary, current construction extent, parcel, official footprint, complete site, or proof that every part of the existing building is within the current build."],"geometry_scope_classes":["reviewed_openstreetmap_330_east_cermak_existing_building_polygon"],"geometry_type":"Polygon","geometry_use_scopes":["project_locator"],"horizontal_uncertainty_metres":null,"independent_imagery_verification":false,"name":"Digital Realty 330 E. Cermak Site","newest_status_as_of":"2026-07-19","physical_site_stable_key":"curated:digital-realty-330-east-cermak-chicago","project_count":1,"site_id":"vcc-site-f806b9a83ed45bed3268","statuses":["under_construction"],"verification_posture":"recent_authoritative_physical_observation_plus_reviewed_site_locator"},"type":"Feature"},{"geometry":{"coordinates":[16.424095,48.270994],"type":"Point"},"id":"vcc-site-137418ccdcd0272f024b","properties":{"country":"Austria","geometry_authority_classes":["official_source"],"geometry_precision_scopes":["The source decimal strings are preserved exactly and parsed without coordinate transformation. Their displayed precision does not imply a surveyed reference feature or horizontal accuracy."],"geometry_scope_classes":["first_party_facility_page_reference_point"],"geometry_type":"Point","geometry_use_scopes":["project_locator"],"horizontal_uncertainty_metres":null,"independent_imagery_verification":false,"name":"Digital Realty VIE13-VIE16 Digital Park Vienna Expansion","newest_status_as_of":"2026-06-18","physical_site_stable_key":"curated:digital-realty-vienna-vie13-vie16-expansion","project_count":1,"site_id":"vcc-site-137418ccdcd0272f024b","statuses":["under_construction"],"verification_posture":"recent_authoritative_physical_observation_plus_reviewed_site_locator"},"type":"Feature"},{"geometry":{"coordinates":[-88.240996871,41.806967678],"type":"Point"},"id":"vcc-site-9369a9dbb7d04a9e1327","properties":{"country":"United States","geometry_authority_classes":["official_source"],"geometry_precision_scopes":["Exact City of Aurora address point for 2835 Bilter Road on the Edged Chicago LLC-owned parcel; not an ORD01-2 footprint."],"geometry_scope_classes":["campus_address_point"],"geometry_type":"Point","geometry_use_scopes":["reviewed_site_locator"],"horizontal_uncertainty_metres":null,"independent_imagery_verification":false,"name":"Edged Chicago Aurora Data Center Campus","newest_status_as_of":"2026-06-04","physical_site_stable_key":"curated:edged-chicago-aurora-campus","project_count":1,"site_id":"vcc-site-9369a9dbb7d04a9e1327","statuses":["shell"],"verification_posture":"recent_authoritative_physical_observation_plus_reviewed_site_locator"},"type":"Feature"},{"geometry":{"coordinates":[29.323671897992956,40.835152897406935],"type":"Point"},"id":"vcc-site-41e0189f5fc22ef9a733","properties":{"country":"Türkiye","geometry_authority_classes":["official_source"],"geometry_precision_scopes":["The source decimal strings are preserved exactly and parsed without coordinate transformation. Their many decimal places do not imply a surveyed reference feature or centimetre-scale horizontal accuracy."],"geometry_scope_classes":["first_party_facility_page_reference_point"],"geometry_type":"Point","geometry_use_scopes":["project_locator"],"horizontal_uncertainty_metres":null,"independent_imagery_verification":false,"name":"ENKA Data Solutions EDS IST 01 Tuzla Data Center","newest_status_as_of":"2026-06-12","physical_site_stable_key":"curated:enka-data-solutions-eds-ist-01-tuzla-data-center","project_count":1,"site_id":"vcc-site-41e0189f5fc22ef9a733","statuses":["under_construction"],"verification_posture":"recent_authoritative_physical_observation_plus_reviewed_site_locator"},"type":"Feature"},{"geometry":{"coordinates":[[[11.6818466,48.1477182],[11.683356,48.1472278],[11.6827121,48.1463179],[11.6820258,48.1465327],[11.68205,48.1465976],[11.6817234,48.1466942],[11.6817008,48.1467009],[11.6816431,48.1468225],[11.681555,48.1469015],[11.6818466,48.1477182]]],"type":"Polygon"},"id":"vcc-site-3867ebd8648d7b1a2b65","properties":{"country":"Germany","geometry_authority_classes":["community_mapped"],"geometry_precision_scopes":["Contributor-mapped MU4 construction-landuse polygon, used only to locate the parent MU4 campus. It is not a Phase 3 point or boundary, the complete current campus extent, an official parcel or planning boundary, a building footprint, or a current construction-progress extent."],"geometry_scope_classes":["reviewed_openstreetmap_mu4_construction_landuse_polygon"],"geometry_type":"Polygon","geometry_use_scopes":["campus_locator"],"horizontal_uncertainty_metres":null,"independent_imagery_verification":false,"name":"Equinix MU4 Munich Data Center","newest_status_as_of":"2026-07-16","physical_site_stable_key":"curated:equinix-mu4-munich-data-center","project_count":1,"site_id":"vcc-site-3867ebd8648d7b1a2b65","statuses":["shell"],"verification_posture":"recent_authoritative_physical_observation_plus_reviewed_site_locator"},"type":"Feature"},{"geometry":{"coordinates":[[[46.7140752,24.8673021],[46.7135909,24.8670666],[46.7138628,24.8666065],[46.714347,24.8668419],[46.7140752,24.8673021]]],"type":"Polygon"},"id":"vcc-site-ca4532d5353073b32508","properties":{"country":"Saudi Arabia","geometry_authority_classes":["community_mapped"],"geometry_precision_scopes":["Contributor-mapped building polygon explicitly tagged operator=Ezditek, ref=RUH01, telecom=data_center, used only to locate the selected RUH01 Phase 1 project. It is not an official, cadastral, planning, survey, parcel, security, Phase 1, or current-construction boundary."],"geometry_scope_classes":["community_mapped_named_ezditek_ruh01_building_polygon"],"geometry_type":"Polygon","geometry_use_scopes":["project_locator"],"horizontal_uncertainty_metres":null,"independent_imagery_verification":false,"name":"Ezditek RUH01/PNU Riyadh Data Center","newest_status_as_of":"2026-06-18","physical_site_stable_key":"curated:ezditek-ruh01-pnu-riyadh-data-center","project_count":1,"site_id":"vcc-site-ca4532d5353073b32508","statuses":["under_construction"],"verification_posture":"recent_authoritative_physical_observation_plus_reviewed_site_locator"},"type":"Feature"},{"geometry":{"coordinates":[8.699444444444445,50.29480555555556],"type":"Point"},"id":"vcc-site-23595034ead536d5a4cb","properties":{"country":"Germany","geometry_authority_classes":["official_source"],"geometry_precision_scopes":["First-party FRA7 factsheet coordinate converted exactly from degrees, minutes, and seconds and bound to the same named facility and street address. It is a facility locator, not a parcel, campus, building, project, entrance, centroid, or current-work boundary."],"geometry_scope_classes":["first_party_facility_reference_point"],"geometry_type":"Point","geometry_use_scopes":["project_locator"],"horizontal_uncertainty_metres":null,"independent_imagery_verification":false,"name":"firstcolo FRA7 Rosbach Campus","newest_status_as_of":"2026-06-15","physical_site_stable_key":"curated:firstcolo-fra7-rosbach-campus","project_count":1,"site_id":"vcc-site-23595034ead536d5a4cb","statuses":["under_construction"],"verification_posture":"recent_authoritative_physical_observation_plus_reviewed_site_locator"},"type":"Feature"},{"geometry":{"coordinates":[114.136318519,22.367898205],"type":"Point"},"id":"vcc-site-0bec2abc5fdac2e0fcf6","properties":{"country":"Hong Kong","geometry_authority_classes":["official_source"],"geometry_precision_scopes":["Official address/building reference point used only to locate the HKG09 campus inherited by the current redevelopment. It is not a parcel, building footprint or centroid, redevelopment extent, construction extent, campus boundary, or survey-accuracy claim."],"geometry_scope_classes":["official_lands_department_address_building_reference_point"],"geometry_type":"Point","geometry_use_scopes":["campus_locator"],"horizontal_uncertainty_metres":null,"independent_imagery_verification":false,"name":"Goodman HKG09 Kwai Chung Data Centre","newest_status_as_of":"2026-07-15","physical_site_stable_key":"curated:goodman-hkg09-kwai-chung-data-centre","project_count":1,"site_id":"vcc-site-0bec2abc5fdac2e0fcf6","statuses":["under_construction"],"verification_posture":"recent_authoritative_physical_observation_plus_reviewed_site_locator"},"type":"Feature"},{"geometry":{"coordinates":[151.19,-33.818441],"type":"Point"},"id":"vcc-site-37497f8175db87d92ef8","properties":{"country":"Australia","geometry_authority_classes":["official_source"],"geometry_precision_scopes":["Applicant-reported State Significant Development project-site coordinate for SSD-66777221, whose project name, applicant, address, and lots bind the SYD01 development. It is a point locator, not any lot, parcel, campus, building, project, or current-work boundary."],"geometry_scope_classes":["official_applicant_project_site_reference_point"],"geometry_type":"Point","geometry_use_scopes":["project_locator"],"horizontal_uncertainty_metres":null,"independent_imagery_verification":false,"name":"Goodman SYD01 Artarmon Data Centre","newest_status_as_of":"2026-07-20","physical_site_stable_key":"curated:goodman-syd01-macquarie-park-data-centre","project_count":1,"site_id":"vcc-site-37497f8175db87d92ef8","statuses":["under_construction"],"verification_posture":"recent_authoritative_physical_observation_plus_reviewed_site_locator"},"type":"Feature"},{"geometry":{"coordinates":[[[8.2112599,47.4467658],[8.211336,47.4466705],[8.2115283,47.4464296],[8.2114246,47.4463917],[8.2109626,47.4462267],[8.2104683,47.4460468],[8.2103994,47.4460221],[8.2101378,47.4463562],[8.2112599,47.4467658]]],"type":"Polygon"},"id":"vcc-site-c61c3aef755484b5c52d","properties":{"country":"Switzerland","geometry_authority_classes":["community_mapped"],"geometry_precision_scopes":["Contributor-mapped polygon for one data-center building at Green's exact first-party Campus ZRH1 address, used only to locate Campus ZRH1. It is not the DC4 footprint or centroid, the Campus ZRH1 boundary, a parcel, a construction extent, or a survey-accuracy claim."],"geometry_scope_classes":["reviewed_openstreetmap_addressed_green_data_center_building_polygon"],"geometry_type":"Polygon","geometry_use_scopes":["campus_locator"],"horizontal_uncertainty_metres":null,"independent_imagery_verification":false,"name":"Green Campus ZRH1 Lupfig","newest_status_as_of":"2026-07-20","physical_site_stable_key":"curated:green-campus-zrh1-lupfig","project_count":1,"site_id":"vcc-site-c61c3aef755484b5c52d","statuses":["under_construction"],"verification_posture":"recent_authoritative_physical_observation_plus_reviewed_site_locator"},"type":"Feature"},{"geometry":{"coordinates":[[[5.7909288,58.6612228],[5.7918207,58.6603723],[5.7950844,58.6572601],[5.7954459,58.6573633],[5.7959015,58.6569302],[5.7968601,58.6572038],[5.7971175,58.6574295],[5.7970632,58.6574207],[5.7970517,58.657419],[5.7970181,58.6574152],[5.7969838,58.6574132],[5.7969494,58.6574129],[5.7969151,58.6574145],[5.7968812,58.6574178],[5.7968482,58.6574229],[5.7968163,58.6574296],[5.7967859,58.657438],[5.7967567,58.6574481],[5.79673,58.6574596],[5.7967057,58.6574723],[5.7966838,58.6574863],[5.7966654,58.6575009],[5.7964848,58.6576598],[5.7965906,58.65769],[5.7966141,58.657698],[5.7966279,58.6577035],[5.796641,58.6577093],[5.7966536,58.6577154],[5.7966655,58.6577219],[5.7966768,58.6577287],[5.7966874,58.6577357],[5.7966972,58.6577431],[5.7967063,58.6577507],[5.7967147,58.6577586],[5.7967222,58.6577666],[5.7967289,58.6577749],[5.7967348,58.6577833],[5.7967399,58.6577919],[5.796744,58.6578006],[5.7967473,58.6578095],[5.7967497,58.6578183],[5.7967513,58.6578273],[5.7967519,58.6578362],[5.7967516,58.6578452],[5.7967504,58.6578542],[5.7967484,58.6578631],[5.7967454,58.6578719],[5.7967416,58.6578807],[5.7967369,58.6578893],[5.7967314,58.6578978],[5.796725,58.6579062],[5.7967177,58.6579143],[5.7967097,58.6579223],[5.7964595,58.6581777],[5.7945602,58.6601224],[5.7944791,58.6602036],[5.794419,58.6602616],[5.7943349,58.6603399],[5.7942482,58.6604175],[5.7941588,58.6604943],[5.7940669,58.6605702],[5.7939725,58.6606453],[5.7938755,58.6607195],[5.7937761,58.6607928],[5.7936742,58.6608652],[5.7935699,58.6609366],[5.7935231,58.6609681],[5.7934631,58.6610071],[5.7933541,58.6610766],[5.7932427,58.6611451],[5.793129,58.6612125],[5.7930131,58.6612789],[5.7928949,58.6613443],[5.7927746,58.6614085],[5.7926521,58.6614717],[5.7925275,58.6615337],[5.7925148,58.6615396],[5.7925014,58.6615452],[5.7924875,58.6615505],[5.7924731,58.6615554],[5.7924582,58.6615599],[5.7924429,58.6615641],[5.7924272,58.6615678],[5.7924112,58.6615711],[5.7923949,58.661574],[5.7923784,58.6615765],[5.7923616,58.6615785],[5.7923446,58.6615801],[5.7923275,58.6615813],[5.7923104,58.661582],[5.7922932,58.6615823],[5.7922759,58.6615821],[5.7922587,58.6615814],[5.7922416,58.6615804],[5.7922247,58.6615788],[5.7922079,58.6615769],[5.7921913,58.6615745],[5.7921749,58.6615716],[5.7921589,58.6615684],[5.7921431,58.6615647],[5.7921278,58.6615606],[5.7909288,58.6612228]]],"type":"Polygon"},"id":"vcc-site-5973ad6c7ce7afc4f6b6","properties":{"country":"Norway","geometry_authority_classes":["official_source"],"geometry_precision_scopes":["Exact deterministic union of three Kartverket official cadastral parcel polygons explicitly listed as the Green Mountain project address in the approved municipal situation plan and area schedule. It is not a survey-accuracy claim, security fence, building outline, current construction extent, or assertion that every square metre is developed."],"geometry_scope_classes":["official_cadastral_project_site_parcel_union_boundary"],"geometry_type":"Polygon","geometry_use_scopes":["official_boundary"],"horizontal_uncertainty_metres":null,"independent_imagery_verification":false,"name":"Green Mountain Undheim Campus","newest_status_as_of":"2026-07-20","physical_site_stable_key":"curated:green-mountain-undheim-campus","project_count":1,"site_id":"vcc-site-5973ad6c7ce7afc4f6b6","statuses":["under_construction"],"verification_posture":"recent_authoritative_physical_observation_plus_official_boundary"},"type":"Feature"},{"geometry":{"coordinates":[[[140.09911080382673,35.800780964478854],[140.09918568342744,35.8007044915439],[140.0993927109607,35.80049305352369],[140.10183610031837,35.797997462232104],[140.10206283572526,35.79779873739954],[140.101406272744,35.79784388608275],[140.10123490872218,35.79787083798487],[140.10112970286696,35.798149097963645],[140.101087862169,35.79816411151416],[140.1010812483405,35.79823080976086],[140.1010337580364,35.798255251292765],[140.10094862640523,35.798272568156385],[140.10084255118034,35.798312467497574],[140.10080832801106,35.79833417539454],[140.1004287796823,35.79831610597334],[140.10026998717862,35.79790961527002],[140.10021518352028,35.797902311286244],[140.10014784335345,35.79790608736053],[140.09980879464837,35.79803088875358],[140.09777824849593,35.798745225012446],[140.09784830786168,35.79901546024741],[140.0986295441498,35.8001984775378],[140.09883507748614,35.80012230769439],[140.09913714043944,35.80039819866151],[140.09842111241122,35.80115663401991],[140.09861239078475,35.80128680169417],[140.09911055684375,35.80078121616053],[140.09911080382673,35.800780964478854]]],"type":"Polygon"},"id":"vcc-site-38f7e55e7e55aaed6c27","properties":{"country":"Japan","geometry_authority_classes":["official_source"],"geometry_precision_scopes":["Official e-Stat 2020 census small-area polygon for 桜台五丁目, used only as a broad address-area locator for the named campus. It is not a campus, parcel, cadastral, building, Phase 3, security, construction, or current-work boundary. The reported 55,117.019 square metres is only the selected statistical feature's area, never an IIJ campus, site, parcel, building, Phase 3, or construction area. Statistical small-area boundaries may not match general regional or administrative boundaries."],"geometry_scope_classes":["official_census_small_area_address_area_polygon"],"geometry_type":"Polygon","geometry_use_scopes":["campus_locator"],"horizontal_uncertainty_metres":null,"independent_imagery_verification":false,"name":"IIJ Shiroi Data Center Campus","newest_status_as_of":"2026-06-25","physical_site_stable_key":"curated:iij-shiroi-data-center-campus","project_count":1,"site_id":"vcc-site-38f7e55e7e55aaed6c27","statuses":["under_construction"],"verification_posture":"recent_authoritative_physical_observation_plus_reviewed_site_locator"},"type":"Feature"},{"geometry":{"coordinates":[0.130495857,51.770073603],"type":"Point"},"id":"vcc-site-c48f4a7325dfc30566cd","properties":{"country":"United Kingdom","geometry_authority_classes":["official_source"],"geometry_precision_scopes":["Campus-centre point derived deterministically from EPSG:27700 easting 547101 and northing 210080 supplied by the government-hosted KLON-03 site report. It is not a parcel, campus boundary, KLON-03 building centroid or footprint, and the report states no horizontal positional accuracy."],"geometry_scope_classes":["government_report_campus_centre_point"],"geometry_type":"Point","geometry_use_scopes":["reviewed_site_locator"],"horizontal_uncertainty_metres":null,"independent_imagery_verification":false,"name":"KAO Data Harlow Campus","newest_status_as_of":"2026-05-26","physical_site_stable_key":"curated:kao-data-harlow-campus","project_count":1,"site_id":"vcc-site-c48f4a7325dfc30566cd","statuses":["under_construction"],"verification_posture":"recent_authoritative_physical_observation_plus_reviewed_site_locator"},"type":"Feature"},{"geometry":{"coordinates":[-99.774790370504,32.509551980071],"type":"Point"},"id":"vcc-site-85b3549bb55293336132","properties":{"country":"United States","geometry_authority_classes":["official_source"],"geometry_precision_scopes":["Official Census Public_AR_Current address-match point used only to locate the source-linked parent campus. Street-range interpolation can differ from a parcel, building, entrance, or surveyed position. The municipal address binds Buildings 5 through 8 and the remaining campus development; the point is not any one of the six remaining building locations."],"geometry_scope_classes":["official_census_address_locator_point"],"geometry_type":"Point","geometry_use_scopes":["campus_locator"],"horizontal_uncertainty_metres":null,"independent_imagery_verification":false,"name":"Lancium Clean Campus Abilene AI Data Center","newest_status_as_of":"2026-06-04","physical_site_stable_key":"curated:lancium-clean-campus-abilene-ai-data-center","project_count":1,"site_id":"vcc-site-85b3549bb55293336132","statuses":["under_construction"],"verification_posture":"recent_authoritative_physical_observation_plus_reviewed_site_locator"},"type":"Feature"},{"geometry":{"coordinates":[22.0132502617,56.9356302057],"type":"Point"},"id":"vcc-site-cc86e5f5e64a0438e8c1","properties":{"country":"Latvia","geometry_authority_classes":["official_source"],"geometry_precision_scopes":["Government cadastral reference point for the reported 113,200 square metre project parcel; 300 metre stated uncertainty."],"geometry_scope_classes":["parcel_reference_point"],"geometry_type":"Point","geometry_use_scopes":["reviewed_site_locator"],"horizontal_uncertainty_metres":300.0,"independent_imagery_verification":false,"name":"LVRTC Pozitrons Kurzeme Data Center","newest_status_as_of":"2026-06-30","physical_site_stable_key":"curated:lvrtc-pozitrons-kurzeme-data-center","project_count":1,"site_id":"vcc-site-cc86e5f5e64a0438e8c1","statuses":["under_construction"],"verification_posture":"recent_authoritative_physical_observation_plus_reviewed_site_locator"},"type":"Feature"},{"geometry":{"coordinates":[[[151.1275395,-33.7807993],[151.1273219,-33.780642],[151.1272947,-33.7806679],[151.1272376,-33.7806266],[151.1270005,-33.7804605],[151.1263812,-33.7810572],[151.1269524,-33.7814642],[151.1273005,-33.781129],[151.1271713,-33.7810364],[151.1272722,-33.7809391],[151.1273413,-33.7809887],[151.1275395,-33.7807993]]],"type":"Polygon"},"id":"vcc-site-bae4ad7e597cccb0da1d","properties":{"country":"Australia","geometry_authority_classes":["community_mapped"],"geometry_precision_scopes":["Contributor-mapped full-development polygon for Intellicentre 3 Super West, used only to locate the parent IC3 Super West facility/campus. It is not specific to the nested Phase 1 fitted-out scope, and it is not an official planning, cadastral, parcel, building, current-construction, or phase boundary."],"geometry_scope_classes":["reviewed_openstreetmap_ic3_super_west_full_development_polygon"],"geometry_type":"Polygon","geometry_use_scopes":["campus_locator"],"horizontal_uncertainty_metres":null,"independent_imagery_verification":false,"name":"Macquarie IC3 Super West Facility","newest_status_as_of":"2026-07-17","physical_site_stable_key":"curated:macquarie-ic3-super-west-facility","project_count":1,"site_id":"vcc-site-bae4ad7e597cccb0da1d","statuses":["under_construction"],"verification_posture":"recent_authoritative_physical_observation_plus_reviewed_site_locator"},"type":"Feature"},{"geometry":{"coordinates":[12.8929999,52.5935],"type":"Point"},"id":"vcc-site-75fed87a1b38b8cd7280","properties":{"country":"Germany","geometry_authority_classes":["official_source"],"geometry_precision_scopes":["First-party BER02/mainHub Nauen location point derived exactly from the published latitude and longitude; not a parcel, building outline, footprint, or measured centroid."],"geometry_scope_classes":["first_party_shared_campus_reference_point"],"geometry_type":"Point","geometry_use_scopes":["reviewed_site_locator"],"horizontal_uncertainty_metres":null,"independent_imagery_verification":false,"name":"maincubes mainHub Nauen Campus","newest_status_as_of":"2026-07-19","physical_site_stable_key":"curated:maincubes-mainhub-nauen-campus","project_count":1,"site_id":"vcc-site-75fed87a1b38b8cd7280","statuses":["under_construction"],"verification_posture":"recent_authoritative_physical_observation_plus_reviewed_site_locator"},"type":"Feature"},{"geometry":{"coordinates":[[[-87.9139269,42.683417],[-87.9059446,42.6833145],[-87.9057086,42.6695977],[-87.9149783,42.6697634],[-87.9140127,42.6762396],[-87.9093671,42.6762317],[-87.9093886,42.6796786],[-87.9139591,42.6797653],[-87.9139269,42.683417]]],"type":"Polygon"},"id":"vcc-site-fcc06643c640f5d8cce2","properties":{"country":"United States","geometry_authority_classes":["community_mapped"],"geometry_precision_scopes":["Contributor-mapped polygon for a named Microsoft Fairwater Phase 2 construction area, used only to locate the Mount Pleasant datacenter campus. It is not an official campus boundary, the complete campus extent, a parcel, a building footprint, the official second-facility footprint, a construction-progress extent, or a survey-accuracy claim."],"geometry_scope_classes":["reviewed_openstreetmap_named_microsoft_fairwater_phase_2_construction_area_polygon"],"geometry_type":"Polygon","geometry_use_scopes":["campus_locator"],"horizontal_uncertainty_metres":null,"independent_imagery_verification":false,"name":"Microsoft Mount Pleasant Datacenter Campus","newest_status_as_of":"2026-06-23","physical_site_stable_key":"curated:microsoft-mount-pleasant-datacenter-campus","project_count":1,"site_id":"vcc-site-fcc06643c640f5d8cce2","statuses":["under_construction"],"verification_posture":"recent_authoritative_physical_observation_plus_reviewed_site_locator"},"type":"Feature"},{"geometry":{"coordinates":[[[9.310337,45.4637209],[9.310511,45.4636182],[9.3124018,45.4625025],[9.3131057,45.4611488],[9.3131343,45.4610938],[9.3119435,45.460586],[9.3118745,45.4605566],[9.3117662,45.4605432],[9.3111096,45.4605166],[9.3091522,45.4615993],[9.3088702,45.4616173],[9.3082001,45.463332],[9.3081635,45.4634076],[9.310337,45.4637209]]],"type":"Polygon"},"id":"vcc-site-885f8423ea04be0404cf","properties":{"country":"Italy","geometry_authority_classes":["community_mapped"],"geometry_precision_scopes":["The representative point is a deterministic planar centroid derived with pyproj 3.7.2, PROJ 9.5.1, and Shapely 2.1.2 under the method pinned in geometry_entity; its serialized digits are computational reproducibility, not survey accuracy. The polygon is a community-mapped former industrial-site outline last edited in 2022. It may include land outside the 77,237 m² municipal intervention area and must not be represented as an official campus, project, parcel, planning, construction, or building boundary."],"geometry_scope_classes":["community_mapped_former_industrial_site_polygon"],"geometry_type":"Polygon","geometry_use_scopes":["campus_locator"],"horizontal_uncertainty_metres":null,"independent_imagery_verification":false,"name":"Microsoft San Bovio Datacenter","newest_status_as_of":"2026-07-01","physical_site_stable_key":"curated:microsoft-san-bovio-italy-datacenter","project_count":1,"site_id":"vcc-site-885f8423ea04be0404cf","statuses":["site_preparation"],"verification_posture":"recent_authoritative_physical_observation_plus_reviewed_site_locator"},"type":"Feature"},{"geometry":{"coordinates":[[[17.581193,68.574975],[17.579787,68.57358],[17.578374,68.573566],[17.577192,68.573738],[17.576978,68.57388],[17.579794,68.576316],[17.57987,68.576529],[17.580216,68.576961],[17.582123,68.576932],[17.582988,68.576362],[17.581193,68.574975]]],"type":"Polygon"},"id":"vcc-site-2fb799e38497b94b3ed1","properties":{"country":"Norway","geometry_authority_classes":["official_source"],"geometry_precision_scopes":["Exact current Kartverket cadastral polygon for parcel 10/760, used only to locate the Nscale Kvandal campus and inherited by the 25 MW current-build project through the explicit v14 project_targets relationship. The parcel contains both officially mapped data-center buildings and is not the footprint or centroid of Data Center 1, the 25 MW EPC project, Data Center 2, or the complete campus."],"geometry_scope_classes":["official_cadastral_parcel_as_campus_locator"],"geometry_type":"Polygon","geometry_use_scopes":["campus_locator"],"horizontal_uncertainty_metres":null,"independent_imagery_verification":false,"name":"Nscale Kvandal Narvik AI Data Center Campus","newest_status_as_of":"2026-07-06","physical_site_stable_key":"curated:nscale-kvandal-narvik-ai-data-center-campus","project_count":1,"site_id":"vcc-site-2fb799e38497b94b3ed1","statuses":["under_construction"],"verification_posture":"recent_authoritative_physical_observation_plus_reviewed_site_locator"},"type":"Feature"},{"geometry":{"coordinates":[-96.654368299801,32.982500800175],"type":"Point"},"id":"vcc-site-86c96db92481ee74998d","properties":{"country":"United States","geometry_authority_classes":["official_source"],"geometry_precision_scopes":["Official Census Public_AR_Current address-match point used only to locate the source-linked parent campus. Street-range interpolation can differ from a parcel, building, entrance, or surveyed position. The current NTT page supplies 2060 Lookout Drive and controls the locator; the Texas TDLR record supplies conflicting 2008 Lookout Drive. Both remain disclosed, and neither point is a TX4 footprint or parcel."],"geometry_scope_classes":["official_census_address_locator_point"],"geometry_type":"Point","geometry_use_scopes":["campus_locator"],"horizontal_uncertainty_metres":null,"independent_imagery_verification":false,"name":"NTT Dallas Data Center Campus","newest_status_as_of":"2026-05-31","physical_site_stable_key":"curated:ntt-dallas-data-center-campus","project_count":1,"site_id":"vcc-site-86c96db92481ee74998d","statuses":["under_construction"],"verification_posture":"recent_authoritative_physical_observation_plus_reviewed_site_locator"},"type":"Feature"},{"geometry":{"coordinates":[[[8.5997613,50.1307489],[8.5997594,50.130723],[8.5997166,50.1307096],[8.5996719,50.1306922],[8.599633,50.1306674],[8.5995797,50.1299523],[8.5995729,50.1293998],[8.5995721,50.1293568],[8.5995992,50.1292079],[8.5996026,50.1291895],[8.5996282,50.1291011],[8.5996343,50.12908],[8.5996575,50.1289316],[8.5996714,50.1288429],[8.5996739,50.1288265],[8.5997489,50.128347],[8.5997804,50.128278],[8.5998464,50.1282272],[8.5999592,50.1281728],[8.6001927,50.1280965],[8.6004301,50.1280387],[8.6006595,50.1279791],[8.6009957,50.1278916],[8.6011657,50.1278453],[8.6016941,50.1277902],[8.6020535,50.1286672],[8.602244,50.1292793],[8.6038184,50.1287996],[8.6041224,50.1291255],[8.6044013,50.1294246],[8.6042178,50.1295338],[8.6041116,50.1295903],[8.6037527,50.1297649],[8.6032817,50.1299372],[8.6032213,50.1300001],[8.6026195,50.1301469],[8.602693,50.1302404],[8.6022957,50.1303532],[8.6013366,50.1305483],[8.6006848,50.1306453],[8.5997613,50.1307489]]],"type":"Polygon"},"id":"vcc-site-fbb0a56d0fdb8284922c","properties":{"country":"Germany","geometry_authority_classes":["community_mapped"],"geometry_precision_scopes":["Contributor-mapped named NTT campus polygon used only to locate the parent Frankfurt 1 campus. It is not the 7.3MW expansion point or footprint, a complete current or legal campus extent, an official parcel, cadastral, planning, or survey boundary, a building footprint, or a current construction-progress extent."],"geometry_scope_classes":["reviewed_openstreetmap_named_ntt_global_data_centers_campus_polygon"],"geometry_type":"Polygon","geometry_use_scopes":["campus_locator"],"horizontal_uncertainty_metres":null,"independent_imagery_verification":false,"name":"NTT Frankfurt 1 Data Center Campus","newest_status_as_of":"2026-07-19","physical_site_stable_key":"curated:ntt-frankfurt-1-campus","project_count":1,"site_id":"vcc-site-fbb0a56d0fdb8284922c","statuses":["under_construction"],"verification_posture":"recent_authoritative_physical_observation_plus_reviewed_site_locator"},"type":"Feature"},{"geometry":{"coordinates":[[[-106.6740497,31.8129741],[-106.6742715,31.8246104],[-106.6582561,31.8263054],[-106.656333,31.81339],[-106.6563897,31.8130628],[-106.6564916,31.8128703],[-106.6567068,31.8126874],[-106.6568087,31.8126104],[-106.6624261,31.8121966],[-106.6623808,31.810291],[-106.6667411,31.8109936],[-106.670792,31.8110034],[-106.6722686,31.811313],[-106.672237,31.8126366],[-106.6740497,31.8129741]]],"type":"Polygon"},"id":"vcc-site-f65d3c659a862ad07679","properties":{"country":"United States","geometry_authority_classes":["community_mapped"],"geometry_precision_scopes":["Contributor-mapped Project Jupiter development polygon used only to locate the parent campus. It is not an official parcel, legal campus boundary, project footprint, building outline, security boundary, or current construction-progress extent."],"geometry_scope_classes":["reviewed_openstreetmap_named_project_jupiter_development_polygon"],"geometry_type":"Polygon","geometry_use_scopes":["campus_locator"],"horizontal_uncertainty_metres":null,"independent_imagery_verification":false,"name":"Oracle Project Jupiter Doña Ana County AI Data Center Campus","newest_status_as_of":"2026-05-27","physical_site_stable_key":"curated:oracle-project-jupiter-dona-ana-campus","project_count":1,"site_id":"vcc-site-f65d3c659a862ad07679","statuses":["under_construction"],"verification_posture":"recent_authoritative_physical_observation_plus_reviewed_site_locator"},"type":"Feature"},{"geometry":{"coordinates":[[[-0.2359757,51.5704235],[-0.2382127,51.5700987],[-0.2383688,51.57062],[-0.2384,51.5707123],[-0.2375743,51.570832],[-0.2372026,51.5708859],[-0.2371814,51.5708133],[-0.2369091,51.5708458],[-0.2369822,51.571043],[-0.236224,51.5711471],[-0.2361303,51.570925],[-0.2359757,51.5704235]]],"type":"Polygon"},"id":"vcc-site-725184148f2278feb335","properties":{"country":"United Kingdom","geometry_authority_classes":["community_mapped"],"geometry_precision_scopes":["Contributor-mapped polygon for one known LON01 building, used only to locate the parent Brent Cross campus. It is not identified as either B2 work zone, the B2 composite-build footprint, a complete campus boundary, an official parcel or planning boundary, or a current construction-progress extent."],"geometry_scope_classes":["reviewed_openstreetmap_pure_dc_lon01_named_building_polygon"],"geometry_type":"Polygon","geometry_use_scopes":["campus_locator"],"horizontal_uncertainty_metres":null,"independent_imagery_verification":false,"name":"Pure DC Brent Cross LON01 Campus","newest_status_as_of":"2026-05-28","physical_site_stable_key":"curated:pure-dc-brent-cross-lon01-campus","project_count":1,"site_id":"vcc-site-725184148f2278feb335","statuses":["under_construction"],"verification_posture":"recent_authoritative_physical_observation_plus_reviewed_site_locator"},"type":"Feature"},{"geometry":{"coordinates":[[[-71.3254368,46.6766699],[-71.3258964,46.6763421],[-71.3252239,46.6758982],[-71.3251745,46.6759334],[-71.3250213,46.6758322],[-71.3249314,46.6758963],[-71.3245495,46.6756441],[-71.3242289,46.6758727],[-71.3254368,46.6766699]]],"type":"Polygon"},"id":"vcc-site-0ecf05307f91c1e40479","properties":{"country":"Canada","geometry_authority_classes":["community_mapped"],"geometry_precision_scopes":["Contributor-mapped polygon for one named QScale data-centre building at Q01's exact first-party address, used only to locate the Q01 campus. It is not the Building B footprint or centroid, the Q01 campus boundary, a parcel, a construction extent, or a survey-accuracy claim."],"geometry_scope_classes":["reviewed_openstreetmap_named_addressed_qscale_facility_building_polygon"],"geometry_type":"Polygon","geometry_use_scopes":["campus_locator"],"horizontal_uncertainty_metres":null,"independent_imagery_verification":false,"name":"QScale Q01 Lévis Campus","newest_status_as_of":"2026-06-04","physical_site_stable_key":"curated:qscale-q01-levis-campus","project_count":1,"site_id":"vcc-site-0ecf05307f91c1e40479","statuses":["under_construction"],"verification_posture":"recent_authoritative_physical_observation_plus_reviewed_site_locator"},"type":"Feature"},{"geometry":{"coordinates":[-1.533627047468273,55.15092301981584],"type":"Point"},"id":"vcc-site-ee33430200d597833ebe","properties":{"country":"United Kingdom","geometry_authority_classes":["official_source"],"geometry_precision_scopes":["Government-hosted applicant report's approximate centre for the wider Cambois Campus, transformed once from NGR NZ 29820 84164. It is not the Phase A point, east- or south-side earthworks location, parcel, campus, building, project, or current-work boundary."],"geometry_scope_classes":["government_hosted_applicant_report_wider_campus_reference_point"],"geometry_type":"Point","geometry_use_scopes":["campus_locator"],"horizontal_uncertainty_metres":null,"independent_imagery_verification":false,"name":"QTS Cambois Data Centre Campus","newest_status_as_of":"2026-07-01","physical_site_stable_key":"curated:qts-cambois-data-centre-campus","project_count":1,"site_id":"vcc-site-ee33430200d597833ebe","statuses":["civil_works"],"verification_posture":"recent_authoritative_physical_observation_plus_reviewed_site_locator"},"type":"Feature"},{"geometry":{"coordinates":[-81.103431663732,35.035399273352],"type":"Point"},"id":"vcc-site-382d4c7030c7ed7c700d","properties":{"country":"United States","geometry_authority_classes":["official_source"],"geometry_precision_scopes":["Official Census Public_AR_Current address-match point used only to locate the source-linked parent campus. Street-range interpolation can differ from a parcel, building, entrance, or surveyed position. The exact address is asserted only for the parent QTS York campus. Building 1 remains at its source-explicit York locality, so the point is a campus locator only."],"geometry_scope_classes":["official_census_address_locator_point"],"geometry_type":"Point","geometry_use_scopes":["campus_locator"],"horizontal_uncertainty_metres":null,"independent_imagery_verification":false,"name":"QTS York County Data Center Campus","newest_status_as_of":"2026-06-30","physical_site_stable_key":"curated:qts-york-county-south-carolina-data-center-campus","project_count":1,"site_id":"vcc-site-382d4c7030c7ed7c700d","statuses":["shell"],"verification_posture":"recent_authoritative_physical_observation_plus_reviewed_site_locator"},"type":"Feature"},{"geometry":{"coordinates":[[[-83.8784026,42.1173137],[-83.8730704,42.1209108],[-83.8731347,42.1245156],[-83.8818358,42.1244519],[-83.8820075,42.1279293],[-83.8854568,42.1278934],[-83.8856017,42.1307062],[-83.8911055,42.1242212],[-83.8908802,42.1171466],[-83.8824366,42.1172341],[-83.880087,42.1174729],[-83.8784026,42.1173137]]],"type":"Polygon"},"id":"vcc-site-249f52c31025c0aa2ef2","properties":{"country":"United States","geometry_authority_classes":["community_mapped"],"geometry_precision_scopes":["The frozen global-open-v3 Polygon is a contributor-mapped construction-site locator for the named Barn data-center campus, inherited by the current-build project through the explicit v14 project_targets relationship. It is not an official, cadastral, or survey boundary; a verified complete 250-acre campus extent; a building or project footprint; a construction extent; or a source of lifecycle, capacity, energy, operating-status, or imagery claims."],"geometry_scope_classes":["reviewed_openstreetmap_named_website_tagged_barn_construction_site_polygon"],"geometry_type":"Polygon","geometry_use_scopes":["campus_locator"],"horizontal_uncertainty_metres":null,"independent_imagery_verification":false,"name":"The Barn Stargate Data Center Campus","newest_status_as_of":"2026-06-01","physical_site_stable_key":"curated:related-openai-oracle-stargate-michigan-saline","project_count":1,"site_id":"vcc-site-249f52c31025c0aa2ef2","statuses":["under_construction"],"verification_posture":"recent_authoritative_physical_observation_plus_reviewed_site_locator"},"type":"Feature"},{"geometry":{"coordinates":[-70.67394,-33.36636],"type":"Point"},"id":"vcc-site-942a847c35703b15ea18","properties":{"country":"Chile","geometry_authority_classes":["official_source"],"geometry_precision_scopes":["Official Chilean environmental-review representative point for expediente 2162968448, rounded to five decimals with a conservative 50 metre analyst envelope. It is a project/site locator, not a parcel, campus boundary, building footprint, measured centroid, or survey-accuracy claim."],"geometry_scope_classes":["official_environmental_review_project_reference_point"],"geometry_type":"Point","geometry_use_scopes":["reviewed_site_locator"],"horizontal_uncertainty_metres":50.0,"independent_imagery_verification":false,"name":"Scala Huechuraba Campus","newest_status_as_of":"2026-07-21","physical_site_stable_key":"curated:scala-huechuraba-campus","project_count":1,"site_id":"vcc-site-942a847c35703b15ea18","statuses":["under_construction"],"verification_posture":"recent_authoritative_physical_observation_plus_reviewed_site_locator"},"type":"Feature"},{"geometry":{"coordinates":[-70.73915,-33.29298],"type":"Point"},"id":"vcc-site-443900b22a794305df17","properties":{"country":"Chile","geometry_authority_classes":["official_source"],"geometry_precision_scopes":["Official Chilean environmental-review representative point for expediente 2152920300, rounded to five decimals with a conservative 50 metre analyst envelope. It is a project/site locator, not a parcel, campus boundary, building footprint, measured centroid, or survey-accuracy claim."],"geometry_scope_classes":["official_environmental_review_project_reference_point"],"geometry_type":"Point","geometry_use_scopes":["reviewed_site_locator"],"horizontal_uncertainty_metres":50.0,"independent_imagery_verification":false,"name":"Scala Lampa Campus","newest_status_as_of":"2026-07-21","physical_site_stable_key":"curated:scala-lampa-campus","project_count":1,"site_id":"vcc-site-443900b22a794305df17","statuses":["under_construction"],"verification_posture":"recent_authoritative_physical_observation_plus_reviewed_site_locator"},"type":"Feature"},{"geometry":{"coordinates":[[[-38.458162,-3.753499],[-38.45902,-3.753223],[-38.45784,-3.749518],[-38.456983,-3.749794],[-38.458162,-3.753499]]],"type":"Polygon"},"id":"vcc-site-b12dddd73cb490c6bb64","properties":{"country":"Brazil","geometry_authority_classes":["official_source"],"geometry_precision_scopes":["Polygon transformed from the four surveyed project-boundary vertices in the official municipal plan; 5 metre stated uncertainty."],"geometry_scope_classes":["surveyed_project_boundary"],"geometry_type":"Polygon","geometry_use_scopes":["official_boundary"],"horizontal_uncertainty_metres":5.0,"independent_imagery_verification":false,"name":"Scala Praia do Futuro Campus","newest_status_as_of":"2026-07-21","physical_site_stable_key":"curated:scala-praia-do-futuro-campus","project_count":1,"site_id":"vcc-site-b12dddd73cb490c6bb64","statuses":["under_construction"],"verification_posture":"recent_authoritative_physical_observation_plus_official_boundary"},"type":"Feature"},{"geometry":{"coordinates":[10.818104,59.9294098],"type":"Point"},"id":"vcc-site-94d1b580090a69685f9f","properties":{"country":"Norway","geometry_authority_classes":["official_source"],"geometry_precision_scopes":["Official address representative point used only to locate the OSL1 campus inherited by Phase 2. It is not the Phase 2 location or footprint, a building centroid, parcel, campus boundary, construction extent, or survey-accuracy claim."],"geometry_scope_classes":["official_matrikkelen_verified_address_representative_point"],"geometry_type":"Point","geometry_use_scopes":["campus_locator"],"horizontal_uncertainty_metres":null,"independent_imagery_verification":false,"name":"Skygard OSL1 Hovinbyen Campus","newest_status_as_of":"2026-06-16","physical_site_stable_key":"curated:skygard-osl1-hovinbyen-campus","project_count":1,"site_id":"vcc-site-94d1b580090a69685f9f","statuses":["under_construction"],"verification_posture":"recent_authoritative_physical_observation_plus_reviewed_site_locator"},"type":"Feature"},{"geometry":{"coordinates":[[[107.1999888,-6.3735755],[107.200245,-6.3735557],[107.2002564,-6.3737012],[107.2020973,-6.3735587],[107.2021447,-6.3741633],[107.2020648,-6.3741695],[107.2020686,-6.3742186],[107.2019717,-6.3742261],[107.2019802,-6.3743341],[107.200317,-6.3744636],[107.2003075,-6.3743425],[107.2002293,-6.3743485],[107.2002194,-6.3742225],[107.2000407,-6.3742364],[107.1999888,-6.3735755]]],"type":"Polygon"},"id":"vcc-site-57a103a9de718a95ae14","properties":{"country":"Indonesia","geometry_authority_classes":["community_mapped"],"geometry_precision_scopes":["Contributor-mapped polygon for STT Jakarta 1, used only as one known-building anchor for the shared campus targeted by STT Jakarta 3. It is not the Jakarta 3 location or footprint, the campus boundary, a parcel, a construction extent, or a survey-accuracy claim.","Contributor-mapped polygon for STT Jakarta 1, used only as one known-building anchor for the shared campus targeted by STT Jakarta 5. It is not the Jakarta 5 location or footprint, the campus boundary, a parcel, a construction extent, or a survey-accuracy claim.","Contributor-mapped polygon for STT Jakarta 1, used only as one known-building anchor for the shared campus targeted by STT Jakarta 6. It is not the Jakarta 6 location or footprint, the campus boundary, a parcel, a construction extent, or a survey-accuracy claim."],"geometry_scope_classes":["reviewed_openstreetmap_stt_jakarta_1_building_polygon"],"geometry_type":"Polygon","geometry_use_scopes":["campus_locator"],"horizontal_uncertainty_metres":null,"independent_imagery_verification":false,"name":"STT Jakarta Data Centre Campus","newest_status_as_of":"2026-06-10","physical_site_stable_key":"curated:stt-jakarta-data-centre-campus","project_count":3,"site_id":"vcc-site-57a103a9de718a95ae14","statuses":["shell","under_construction"],"verification_posture":"recent_authoritative_physical_observation_plus_reviewed_site_locator"},"type":"Feature"},{"geometry":{"coordinates":[23.90870178233002,37.96626241294147],"type":"Point"},"id":"vcc-site-10c105346f5cad5b0aa5","properties":{"country":"Greece","geometry_authority_classes":["official_source"],"geometry_precision_scopes":["First-party project map point, facility-specific, with 50 metre stated horizontal uncertainty."],"geometry_scope_classes":["facility_reference_point"],"geometry_type":"Point","geometry_use_scopes":["reviewed_site_locator"],"horizontal_uncertainty_metres":50.0,"independent_imagery_verification":false,"name":"Ten Brinke Spata Data Center","newest_status_as_of":"2026-07-21","physical_site_stable_key":"curated:ten-brinke-spata-data-center","project_count":1,"site_id":"vcc-site-10c105346f5cad5b0aa5","statuses":["under_construction"],"verification_posture":"recent_authoritative_physical_observation_plus_reviewed_site_locator"},"type":"Feature"},{"geometry":{"coordinates":[18.4649,-33.9712],"type":"Point"},"id":"vcc-site-2a7b2edfacb6958b2186","properties":{"country":"South Africa","geometry_authority_classes":["official_source"],"geometry_precision_scopes":["The point locates the CT1 facility/campus only. It is not specific to the current expansion and is not a centroid, parcel, building outline, construction extent, or boundary."],"geometry_scope_classes":["official_source_reported_facility_reference_point"],"geometry_type":"Point","geometry_use_scopes":["campus_locator"],"horizontal_uncertainty_metres":null,"independent_imagery_verification":false,"name":"Teraco CT1 Data Centre","newest_status_as_of":"2026-07-17","physical_site_stable_key":"curated:teraco-ct1-rondebosch-data-centre","project_count":1,"site_id":"vcc-site-2a7b2edfacb6958b2186","statuses":["under_construction"],"verification_posture":"recent_authoritative_physical_observation_plus_reviewed_site_locator"},"type":"Feature"},{"geometry":{"coordinates":[-95.455736245303,30.066026434779],"type":"Point"},"id":"vcc-site-77fa0d95d9c7ed1b2168","properties":{"country":"United States","geometry_authority_classes":["official_source"],"geometry_precision_scopes":["Official Census Public_AR_Current address-match point used only to locate the source-linked parent campus. Street-range interpolation can differ from a parcel, building, entrance, or surveyed position. The brochure places HOU1 and HOU2 on one two-data-center campus. The address point locates that campus and is not an HOU2 building footprint."],"geometry_scope_classes":["official_census_address_locator_point"],"geometry_type":"Point","geometry_use_scopes":["campus_locator"],"horizontal_uncertainty_metres":null,"independent_imagery_verification":false,"name":"TRG Spring Cypress Campus","newest_status_as_of":"2026-07-20","physical_site_stable_key":"curated:trg-spring-cypress-campus","project_count":1,"site_id":"vcc-site-77fa0d95d9c7ed1b2168","statuses":["under_construction"],"verification_posture":"recent_authoritative_physical_observation_plus_reviewed_site_locator"},"type":"Feature"},{"geometry":{"coordinates":[[[25.28186318450449,60.63524801718477],[25.282821333622106,60.63344684080821],[25.283174529253323,60.633492871877664],[25.288848570957793,60.63423216521858],[25.2901751032975,60.63530906972012],[25.290507868886902,60.63557917921867],[25.289648316678505,60.63714634286547],[25.28882597202742,60.63679805612663],[25.28663041236235,60.63586806167368],[25.28186318450449,60.63524801718477]]],"type":"Polygon"},"id":"vcc-site-00808116377785b5c125","properties":{"country":"Finland","geometry_authority_classes":["official_source"],"geometry_precision_scopes":["Exact municipal cadastral polygon for property 505-407-7-137, inherited through the explicit project-to-campus link; it is the full campus parcel, not a building or the current 70 MW development footprint."],"geometry_scope_classes":["official_cadastral_campus_parcel_boundary"],"geometry_type":"Polygon","geometry_use_scopes":["official_boundary"],"horizontal_uncertainty_metres":null,"independent_imagery_verification":false,"name":"Verne Mäntsälä Data Center Campus","newest_status_as_of":"2026-06-17","physical_site_stable_key":"curated:verne-mantsala-data-center-campus","project_count":1,"site_id":"vcc-site-00808116377785b5c125","statuses":["under_construction"],"verification_posture":"recent_authoritative_physical_observation_plus_official_boundary"},"type":"Feature"},{"geometry":{"coordinates":[[[27.662999297125,64.236357014236],[27.664603732752,64.236957992993],[27.665301813984,64.237222120113],[27.666110508638,64.237226128062],[27.66792387702,64.236699895034],[27.668241867493,64.237398951537],[27.668210968686,64.237430197039],[27.667767586039,64.237850237016],[27.667474603837,64.238009447557],[27.665287407223,64.239033051921],[27.663228090258,64.239894571801],[27.662531876418,64.240174902686],[27.662018146457,64.240502846112],[27.661573848142,64.240889675596],[27.661271571061,64.241267802604],[27.661030154444,64.241777510126],[27.660622015149,64.242212624161],[27.660095743631,64.242535232747],[27.659201057004,64.242884610484],[27.658711754484,64.243028552631],[27.658450275917,64.243130195414],[27.6571919852,64.243536819175],[27.656797890354,64.243697350678],[27.656421035361,64.243890119382],[27.655997122869,64.244186237394],[27.655223599514,64.244867859528],[27.654724026356,64.245190328623],[27.65283751455,64.246243786737],[27.652261616493,64.246567485346],[27.650636118066,64.247240316792],[27.647159299849,64.248726838809],[27.646715840175,64.248898338898],[27.646408609275,64.248987598371],[27.645862934819,64.249287822971],[27.643398190655,64.250330248256],[27.643259243753,64.250358589391],[27.643116978744,64.250387088571],[27.642860249349,64.250520979705],[27.641587219694,64.251027996244],[27.64124764422,64.251234910906],[27.640812635539,64.25133009416],[27.640727272995,64.251415120499],[27.640653998941,64.251433281957],[27.640617006821,64.251442175772],[27.640579530858,64.251450667865],[27.640541972771,64.251459178256],[27.640503930428,64.251467268977],[27.640465847219,64.251475377816],[27.640427279549,64.251483058011],[27.640388671015,64.251490756323],[27.640349639907,64.25149802572],[27.640310567729,64.251505304261],[27.640271072771,64.251512144914],[27.640231557373,64.251518994619],[27.640191660249,64.251525397282],[27.640151763522,64.25153181788],[27.640111484863,64.251537782462],[27.640071206395,64.251543756006],[27.640030608092,64.251549282236],[27.639990009774,64.251554808454],[27.639949112046,64.251559878295],[27.639908235139,64.251564957007],[27.639867079247,64.251569570277],[27.639825964807,64.251574192328],[27.639784592221,64.25157835782],[27.639743281302,64.251582514057],[27.639701732869,64.251586213643],[27.639660246312,64.251589912948],[27.639618563502,64.251593155422],[27.639576962992,64.25159638855],[27.63953518686,64.251599164757],[27.639451665252,64.251604259325],[27.635991397205,64.251613928783],[27.634584542224,64.25139869548],[27.63366253862,64.251333045942],[27.632941019048,64.251274043258],[27.632273860061,64.251194045018],[27.63290077077,64.250559838099],[27.633489741663,64.249892588711],[27.634172063849,64.248979150555],[27.635074803348,64.247519353457],[27.635954719345,64.246056068799],[27.637759965814,64.242965130073],[27.638708986099,64.241472826426],[27.638817115211,64.241326211265],[27.638872843409,64.241253071377],[27.638929666738,64.241180034368],[27.638987585602,64.241107118184],[27.639046620615,64.241034322733],[27.639106751356,64.240961657078],[27.639167977815,64.240889121217],[27.639230279573,64.240816724211],[27.639293697862,64.24074446588],[27.639358191642,64.240672355375],[27.639423781524,64.240600392605],[27.639490467709,64.240528586542],[27.639558208949,64.240456937363],[27.639627046476,64.240385444889],[27.639696960079,64.240314127152],[27.639767949749,64.240242984153],[27.639839995068,64.240172024952],[27.63991311644,64.240101240486],[27.639987293447,64.240030639815],[27.640062526289,64.239960231911],[27.640138835787,64.239890025656],[27.640216180487,64.239820012255],[27.640294560797,64.239750209652],[27.640373997125,64.239680608784],[27.640454469258,64.239611227685],[27.640535977192,64.239542066352],[27.640618500299,64.239473124876],[27.640702059402,64.239404412136],[27.640786633668,64.239335919248],[27.640872223714,64.239267673131],[27.640958808707,64.239199664899],[27.641046409262,64.23913189446],[27.64113500517,64.239064379849],[27.641224596218,64.238997112092],[27.64131516199,64.23893010025],[27.641406723307,64.238863353204],[27.641499238718,64.238796862159],[27.641592749875,64.23873064488],[27.641687194914,64.238664701637],[27.64178261507,64.238599032245],[27.641878969308,64.238533645858],[27.641976278244,64.238468542383],[27.642074521255,64.23840372191],[27.642173698753,64.238339202381],[27.642273789907,64.238274974913],[27.642374794716,64.238211039505],[27.642476713591,64.238147414099],[27.642579525702,64.238084089813],[27.642683231464,64.23802108459],[27.642787830665,64.237958389456],[27.642893323303,64.237896004408],[27.642999668554,64.237833947572],[27.643106887036,64.237772218856],[27.643214937299,64.237710809466],[27.643323860997,64.237649737166],[27.643433616681,64.23758899316],[27.64354420456,64.237528586422],[27.643655624839,64.237468525922],[27.643767856691,64.237408802775],[27.643880900532,64.237349434927],[27.643994735324,64.23729040452],[27.644051830301,64.237260996189],[27.644109361693,64.237231738471],[27.644224779222,64.237173418833],[27.646483713295,64.236017060649],[27.650272103547,64.234085123019],[27.652934109112,64.232737605447],[27.653470117796,64.232465026861],[27.653838488617,64.232287989677],[27.654025167433,64.232200365956],[27.654213467213,64.232113336],[27.654403408993,64.232026917657],[27.654594951754,64.231941120079],[27.654788095706,64.231855952232],[27.654982820231,64.231771414203],[27.655179084527,64.231687524116],[27.655376909417,64.231604290846],[27.655576233061,64.231521714664],[27.655777096898,64.231439804352],[27.6559794189,64.231358578221],[27.656183240083,64.231278027104],[27.656388499245,64.231198178195],[27.656595195965,64.23111901354],[27.656803310481,64.231040569119],[27.657012821759,64.230962827071],[27.657223709829,64.230885814403],[27.657435953868,64.230809522229],[27.657649533694,64.230733968582],[27.6578644287,64.230659153549],[27.658080618492,64.230585086189],[27.658298103291,64.230511775471],[27.658516821263,64.230439221667],[27.658736793244,64.230367433652],[27.658957957616,64.230296420672],[27.659180335001,64.230226182628],[27.659403863783,64.230156728769],[27.659628543972,64.230088059087],[27.659741156642,64.230053933776],[27.659854355394,64.230020191618],[27.660081277231,64.229953117475],[27.663436339293,64.231528523911],[27.663528823764,64.231572373348],[27.663574831304,64.231594393339],[27.663620328291,64.231616613064],[27.663665845966,64.231638832681],[27.663710873487,64.231661242966],[27.663755901297,64.231683662211],[27.663800418123,64.231706263244],[27.663844935022,64.231728864264],[27.663888961767,64.231751655954],[27.663932967754,64.23177443875],[27.663976462973,64.23179741231],[27.664019958264,64.231820385857],[27.664062942571,64.231843541195],[27.664148379297,64.231890015784],[27.664275888656,64.23196114842],[27.664339154967,64.231996972679],[27.664401173427,64.232033197444],[27.664463317244,64.232069484432],[27.664524212992,64.232106162956],[27.664585192437,64.232142885944],[27.664644924026,64.232180009442],[27.66470473931,64.232217177407],[27.664763265075,64.232254728125],[27.664821874535,64.232292323309],[27.664879214657,64.23233028321],[27.664936597458,64.232368296738],[27.664992690302,64.232406675078],[27.665048825393,64.232445089101],[27.665103649693,64.232483859058],[27.665158536854,64.232522664605],[27.665212071989,64.232561826275],[27.665265669767,64.232601014563],[27.665317915084,64.232640541031],[27.665370202643,64.232680103184],[27.665421116689,64.232719985665],[27.665472072975,64.232759903834],[27.665521655743,64.232800142333],[27.665571239086,64.232840398761],[27.665619469306,64.232880966454],[27.665667700099,64.232921552078],[27.665714536532,64.232962449156],[27.665761393934,64.233003355098],[27.665806835923,64.233044554645],[27.665852298879,64.233085763056],[27.665896325801,64.233127265167],[27.665940373254,64.233168758198],[27.665982984666,64.23321054493],[27.666025595775,64.233252313703],[27.666066749789,64.233294358328],[27.666107924328,64.233336393873],[27.666147641548,64.233378696298],[27.666187358458,64.233420980766],[27.666225596995,64.233463514262],[27.66626385605,64.233506038681],[27.666300636292,64.233548794184],[27.6663373956,64.233591531826],[27.666372676304,64.233634509526],[27.666407956253,64.233677451325],[27.666441757158,64.233720615238],[27.666475536689,64.233763743344],[27.666507837167,64.233807093565],[27.66654011605,64.233850399008],[27.666570915441,64.233893908621],[27.666601672832,64.233937382523],[27.666630950289,64.23398104265],[27.666660185527,64.234024658093],[27.666687940606,64.23406845079],[27.666715674077,64.23411219871],[27.666741906548,64.234156115005],[27.66676811719,64.234199977551],[27.666792826607,64.2342439995],[27.666817493358,64.234287958821],[27.666840679492,64.234332077453],[27.666863822738,64.234376124484],[27.666885484924,64.23442031288],[27.666927221613,64.234508678958],[27.667070808545,64.234824432866],[27.667201311589,64.235111340751],[27.662999297125,64.236357014236]]],"type":"Polygon"},"id":"vcc-site-780d34f93b2e30c4ae73","properties":{"country":"Finland","geometry_authority_classes":["official_source"],"geometry_precision_scopes":["Exact reviewed NLS cadastral polygon for parcel 205-7-4-1, used only to locate the XTX Markets Kajaani parent campus and inherited by the Second Data Center project through the explicit project-to-campus link. It is not the DC2 location or footprint, either data-center building footprint, the current work extent, a verified complete campus boundary, a security boundary, or proof every square metre is developed."],"geometry_scope_classes":["official_cadastral_parcel_as_campus_locator"],"geometry_type":"Polygon","geometry_use_scopes":["campus_locator"],"horizontal_uncertainty_metres":null,"independent_imagery_verification":false,"name":"XTX Markets Kajaani Data Center Campus","newest_status_as_of":"2026-06-25","physical_site_stable_key":"curated:xtx-markets-kajaani-data-center-campus","project_count":1,"site_id":"vcc-site-780d34f93b2e30c4ae73","statuses":["under_construction"],"verification_posture":"recent_authoritative_physical_observation_plus_reviewed_site_locator"},"type":"Feature"}],"name":"Data Center Atlas Verified Construction Core v0.13 preview","release_status":"preview","type":"FeatureCollection"}
