{
  "features": [
    {
      "geometry": {
        "coordinates": [
          [
            [
              -90.0370877,
              35.0041541
            ],
            [
              -90.0370744,
              35.0037939
            ],
            [
              -90.0369649,
              35.0037966
            ],
            [
              -90.0369516,
              35.0034365
            ],
            [
              -90.0368422,
              35.0034392
            ],
            [
              -90.0368322,
              35.0031691
            ],
            [
              -90.0367227,
              35.0031718
            ],
            [
              -90.0367061,
              35.0027216
            ],
            [
              -90.0362683,
              35.0027325
            ],
            [
              -90.0362717,
              35.0028226
            ],
            [
              -90.0360528,
              35.002828
            ],
            [
              -90.0360561,
              35.0029181
            ],
            [
              -90.0359467,
              35.0029208
            ],
            [
              -90.0359567,
              35.003191
            ],
            [
              -90.0356284,
              35.0031992
            ],
            [
              -90.0356317,
              35.0032892
            ],
            [
              -90.0353034,
              35.0032975
            ],
            [
              -90.0353167,
              35.0036576
            ],
            [
              -90.0354261,
              35.0036549
            ],
            [
              -90.0354394,
              35.0040151
            ],
            [
              -90.03533,
              35.0040178
            ],
            [
              -90.0353367,
              35.0041979
            ],
            [
              -90.0370877,
              35.0041541
            ]
          ]
        ],
        "type": "Polygon"
      },
      "id": "change-proposal-1",
      "properties": {
        "area_m2": 19000.0,
        "class": "large_spectral_change_candidate",
        "identity_claim": false,
        "review_required": true
      },
      "type": "Feature"
    },
    {
      "geometry": {
        "coordinates": [
          [
            [
              -90.0364335,
              34.998312
            ],
            [
              -90.0364302,
              34.9982219
            ],
            [
              -90.0365396,
              34.9982192
            ],
            [
              -90.0365063,
              34.9973187
            ],
            [
              -90.0363969,
              34.9973215
            ],
            [
              -90.0363935,
              34.9972314
            ],
            [
              -90.0360652,
              34.9972396
            ],
            [
              -90.0360885,
              34.99787
            ],
            [
              -90.0359791,
              34.9978727
            ],
            [
              -90.0359924,
              34.9982329
            ],
            [
              -90.0361019,
              34.9982301
            ],
            [
              -90.0361052,
              34.9983202
            ],
            [
              -90.0364335,
              34.998312
            ]
          ]
        ],
        "type": "Polygon"
      },
      "id": "change-proposal-2",
      "properties": {
        "area_m2": 5000.0,
        "class": "large_spectral_change_candidate",
        "identity_claim": false,
        "review_required": true
      },
      "type": "Feature"
    },
    {
      "geometry": {
        "coordinates": [
          [
            [
              -90.0426116,
              34.9995091
            ],
            [
              -90.0426083,
              34.9994191
            ],
            [
              -90.0427177,
              34.9994163
            ],
            [
              -90.042701,
              34.9989661
            ],
            [
              -90.0425916,
              34.9989688
            ],
            [
              -90.0425816,
              34.9986987
            ],
            [
              -90.0424722,
              34.9987014
            ],
            [
              -90.0424521,
              34.9981611
            ],
            [
              -90.0425616,
              34.9981584
            ],
            [
              -90.0425415,
              34.9976181
            ],
            [
              -90.042651,
              34.9976154
            ],
            [
              -90.0426376,
              34.9972552
            ],
            [
              -90.0425282,
              34.9972579
            ],
            [
              -90.0425249,
              34.9971679
            ],
            [
              -90.0427437,
              34.9971624
            ],
            [
              -90.0427371,
              34.9969823
            ],
            [
              -90.0426276,
              34.996985
            ],
            [
              -90.0426176,
              34.9967149
            ],
            [
              -90.0423988,
              34.9967204
            ],
            [
              -90.0423954,
              34.9966303
            ],
            [
              -90.042286,
              34.9966331
            ],
            [
              -90.0422827,
              34.996543
            ],
            [
              -90.0421732,
              34.9965458
            ],
            [
              -90.0421699,
              34.9964557
            ],
            [
              -90.0422793,
              34.996453
            ],
            [
              -90.0422693,
              34.9961829
            ],
            [
              -90.0421599,
              34.9961856
            ],
            [
              -90.0421566,
              34.9960956
            ],
            [
              -90.0420471,
              34.9960983
            ],
            [
              -90.0420571,
              34.9963684
            ],
            [
              -90.04151,
              34.9963822
            ],
            [
              -90.0415,
              34.996112
            ],
            [
              -90.0416094,
              34.9961093
            ],
            [
              -90.0416061,
              34.9960192
            ],
            [
              -90.0420438,
              34.9960083
            ],
            [
              -90.0420405,
              34.9959182
            ],
            [
              -90.041931,
              34.9959209
            ],
            [
              -90.0419277,
              34.9958309
            ],
            [
              -90.0415994,
              34.9958391
            ],
            [
              -90.0416028,
              34.9959292
            ],
            [
              -90.0413839,
              34.9959347
            ],
            [
              -90.0413906,
              34.9961148
            ],
            [
              -90.0412811,
              34.9961175
            ],
            [
              -90.0412911,
              34.9963877
            ],
            [
              -90.0411817,
              34.9963904
            ],
            [
              -90.0411851,
              34.9964804
            ],
            [
              -90.0410756,
              34.9964832
            ],
            [
              -90.0411757,
              34.9991846
            ],
            [
              -90.0413945,
              34.9991791
            ],
            [
              -90.0413979,
              34.9992692
            ],
            [
              -90.0415073,
              34.9992664
            ],
            [
              -90.0415106,
              34.9993565
            ],
            [
              -90.0416201,
              34.9993537
            ],
            [
              -90.0416234,
              34.9994438
            ],
            [
              -90.0417328,
              34.999441
            ],
            [
              -90.0417362,
              34.9995311
            ],
            [
              -90.0426116,
              34.9995091
            ]
          ],
          [
            [
              -90.0424955,
              34.9993318
            ],
            [
              -90.0420578,
              34.9993427
            ],
            [
              -90.0420544,
              34.9992527
            ],
            [
              -90.0423827,
              34.9992445
            ],
            [
              -90.0423794,
              34.9991544
            ],
            [
              -90.0424888,
              34.9991517
            ],
            [
              -90.0424955,
              34.9993318
            ]
          ],
          [
            [
              -90.0422666,
              34.9990671
            ],
            [
              -90.0420478,
              34.9990726
            ],
            [
              -90.0420444,
              34.9989825
            ],
            [
              -90.0422633,
              34.9989771
            ],
            [
              -90.0422666,
              34.9990671
            ]
          ],
          [
            [
              -90.0414172,
              34.9968351
            ],
            [
              -90.0411984,
              34.9968406
            ],
            [
              -90.0411884,
              34.9965705
            ],
            [
              -90.0412978,
              34.9965677
            ],
            [
              -90.0412945,
              34.9964777
            ],
            [
              -90.0416228,
              34.9964695
            ],
            [
              -90.0416261,
              34.9965595
            ],
            [
              -90.0414072,
              34.996565
            ],
            [
              -90.0414172,
              34.9968351
            ]
          ]
        ],
        "type": "Polygon"
      },
      "id": "change-proposal-3",
      "properties": {
        "area_m2": 44800.0,
        "class": "large_spectral_change_candidate",
        "identity_claim": false,
        "review_required": true
      },
      "type": "Feature"
    },
    {
      "geometry": {
        "coordinates": [
          [
            [
              -90.0349713,
              35.0002413
            ],
            [
              -90.034968,
              35.0001513
            ],
            [
              -90.0350774,
              35.0001485
            ],
            [
              -90.0350575,
              34.9996082
            ],
            [
              -90.0351669,
              34.9996055
            ],
            [
              -90.0351569,
              34.9993354
            ],
            [
              -90.0350475,
              34.9993381
            ],
            [
              -90.0350408,
              34.999158
            ],
            [
              -90.0351503,
              34.9991553
            ],
            [
              -90.0351236,
              34.9984349
            ],
            [
              -90.0352331,
              34.9984322
            ],
            [
              -90.0352297,
              34.9983421
            ],
            [
              -90.0353392,
              34.9983394
            ],
            [
              -90.0353358,
              34.9982493
            ],
            [
              -90.0355547,
              34.9982438
            ],
            [
              -90.0355514,
              34.9981538
            ],
            [
              -90.0356608,
              34.9981511
            ],
            [
              -90.0356408,
              34.9976108
            ],
            [
              -90.0355314,
              34.9976135
            ],
            [
              -90.0355248,
              34.9974334
            ],
            [
              -90.0354153,
              34.9974362
            ],
            [
              -90.0354053,
              34.997166
            ],
            [
              -90.0357336,
              34.9971578
            ],
            [
              -90.035717,
              34.9967076
            ],
            [
              -90.0358264,
              34.9967048
            ],
            [
              -90.0358198,
              34.9965247
            ],
            [
              -90.0359292,
              34.996522
            ],
            [
              -90.0359259,
              34.9964319
            ],
            [
              -90.0358164,
              34.9964347
            ],
            [
              -90.0358031,
              34.9960745
            ],
            [
              -90.0355843,
              34.99608
            ],
            [
              -90.0355876,
              34.99617
            ],
            [
              -90.0353687,
              34.9961755
            ],
            [
              -90.0353721,
              34.9962655
            ],
            [
              -90.0352626,
              34.9962683
            ],
            [
              -90.035266,
              34.9963583
            ],
            [
              -90.0351565,
              34.9963611
            ],
            [
              -90.0351332,
              34.9957307
            ],
            [
              -90.0346955,
              34.9957417
            ],
            [
              -90.0346989,
              34.9958317
            ],
            [
              -90.0345894,
              34.9958345
            ],
            [
              -90.0346027,
              34.9961947
            ],
            [
              -90.0344933,
              34.9961974
            ],
            [
              -90.03449,
              34.9961073
            ],
            [
              -90.0343806,
              34.9961101
            ],
            [
              -90.0343772,
              34.99602
            ],
            [
              -90.0340489,
              34.9960282
            ],
            [
              -90.0340722,
              34.9966586
            ],
            [
              -90.0342911,
              34.9966531
            ],
            [
              -90.0342944,
              34.9967432
            ],
            [
              -90.0346227,
              34.9967349
            ],
            [
              -90.0346493,
              34.9974553
            ],
            [
              -90.0345399,
              34.9974581
            ],
            [
              -90.0345366,
              34.997368
            ],
            [
              -90.0342083,
              34.9973762
            ],
            [
              -90.0342116,
              34.9974663
            ],
            [
              -90.0341022,
              34.997469
            ],
            [
              -90.0341122,
              34.9977392
            ],
            [
              -90.0340027,
              34.9977419
            ],
            [
              -90.0339994,
              34.9976518
            ],
            [
              -90.03389,
              34.9976546
            ],
            [
              -90.0338933,
              34.9977446
            ],
            [
              -90.0337839,
              34.9977474
            ],
            [
              -90.0337905,
              34.9979275
            ],
            [
              -90.0340094,
              34.997922
            ],
            [
              -90.0340127,
              34.998012
            ],
            [
              -90.0337938,
              34.9980175
            ],
            [
              -90.0337972,
              34.9981076
            ],
            [
              -90.0336877,
              34.9981103
            ],
            [
              -90.0336944,
              34.9982904
            ],
            [
              -90.0338038,
              34.9982877
            ],
            [
              -90.0338105,
              34.9984677
            ],
            [
              -90.0339199,
              34.998465
            ],
            [
              -90.0339166,
              34.998375
            ],
            [
              -90.0341354,
              34.9983695
            ],
            [
              -90.0341288,
              34.9981894
            ],
            [
              -90.0343476,
              34.9981839
            ],
            [
              -90.0343443,
              34.9980939
            ],
            [
              -90.0345632,
              34.9980884
            ],
            [
              -90.0345798,
              34.9985386
            ],
            [
              -90.0346892,
              34.9985359
            ],
            [
              -90.0346926,
              34.9986259
            ],
            [
              -90.0345831,
              34.9986287
            ],
            [
              -90.0345965,
              34.9989889
            ],
            [
              -90.0347059,
              34.9989861
            ],
            [
              -90.0347125,
              34.9991662
            ],
            [
              -90.0346031,
              34.999169
            ],
            [
              -90.0346131,
              34.9994391
            ],
            [
              -90.0347225,
              34.9994364
            ],
            [
              -90.0347259,
              34.9995264
            ],
            [
              -90.0346164,
              34.9995292
            ],
            [
              -90.0346264,
              34.9997993
            ],
            [
              -90.0347358,
              34.9997966
            ],
            [
              -90.0347392,
              34.9998866
            ],
            [
              -90.0346297,
              34.9998893
            ],
            [
              -90.0346397,
              35.0001595
            ],
            [
              -90.0347491,
              35.0001567
            ],
            [
              -90.0347525,
              35.0002468
            ],
            [
              -90.0349713,
              35.0002413
            ]
          ],
          [
            [
              -90.0342249,
              34.9978265
            ],
            [
              -90.0341155,
              34.9978292
            ],
            [
              -90.0341122,
              34.9977392
            ],
            [
              -90.0342216,
              34.9977364
            ],
            [
              -90.0342249,
              34.9978265
            ]
          ],
          [
            [
              -90.035402,
              34.997076
            ],
            [
              -90.0350737,
              34.9970842
            ],
            [
              -90.0350671,
              34.9969041
            ],
            [
              -90.0352859,
              34.9968986
            ],
            [
              -90.0352893,
              34.9969887
            ],
            [
              -90.0353987,
              34.9969859
            ],
            [
              -90.035402,
              34.997076
            ]
          ],
          [
            [
              -90.0351599,
              34.9964511
            ],
            [
              -90.0350504,
              34.9964538
            ],
            [
              -90.0350471,
              34.9963638
            ],
            [
              -90.0351565,
              34.9963611
            ],
            [
              -90.0351599,
              34.9964511
            ]
          ]
        ],
        "type": "Polygon"
      },
      "id": "change-proposal-4",
      "properties": {
        "area_m2": 42900.0,
        "class": "large_spectral_change_candidate",
        "identity_claim": false,
        "review_required": true
      },
      "type": "Feature"
    },
    {
      "geometry": {
        "coordinates": [
          [
            [
              -90.0396042,
              35.0011167
            ],
            [
              -90.0396009,
              35.0010267
            ],
            [
              -90.0403669,
              35.0010075
            ],
            [
              -90.0403502,
              35.0005573
            ],
            [
              -90.0402408,
              35.00056
            ],
            [
              -90.0402375,
              35.0004699
            ],
            [
              -90.0403469,
              35.0004672
            ],
            [
              -90.0403302,
              35.000017
            ],
            [
              -90.0402208,
              35.0000197
            ],
            [
              -90.0402074,
              34.9996595
            ],
            [
              -90.040098,
              34.9996623
            ],
            [
              -90.040078,
              34.999122
            ],
            [
              -90.0399686,
              34.9991247
            ],
            [
              -90.0399419,
              34.9984044
            ],
            [
              -90.0400513,
              34.9984016
            ],
            [
              -90.0400447,
              34.9982215
            ],
            [
              -90.0399352,
              34.9982243
            ],
            [
              -90.0399319,
              34.9981342
            ],
            [
              -90.0400413,
              34.9981315
            ],
            [
              -90.0400347,
              34.9979514
            ],
            [
              -90.0399253,
              34.9979541
            ],
            [
              -90.0399086,
              34.9975039
            ],
            [
              -90.040018,
              34.9975011
            ],
            [
              -90.0399913,
              34.9967808
            ],
            [
              -90.0401008,
              34.996778
            ],
            [
              -90.0400908,
              34.9965079
            ],
            [
              -90.0399813,
              34.9965106
            ],
            [
              -90.0399747,
              34.9963305
            ],
            [
              -90.0400841,
              34.9963278
            ],
            [
              -90.0400808,
              34.9962377
            ],
            [
              -90.0401902,
              34.996235
            ],
            [
              -90.0401869,
              34.9961449
            ],
            [
              -90.0402963,
              34.9961422
            ],
            [
              -90.0402863,
              34.9958721
            ],
            [
              -90.0400674,
              34.9958775
            ],
            [
              -90.0400641,
              34.9957875
            ],
            [
              -90.0398453,
              34.995793
            ],
            [
              -90.0398586,
              34.9961532
            ],
            [
              -90.039202,
              34.9961696
            ],
            [
              -90.0391887,
              34.9958094
            ],
            [
              -90.0390793,
              34.9958122
            ],
            [
              -90.0390826,
              34.9959022
            ],
            [
              -90.0389732,
              34.995905
            ],
            [
              -90.0389932,
              34.9964453
            ],
            [
              -90.0386649,
              34.9964535
            ],
            [
              -90.0386582,
              34.9962734
            ],
            [
              -90.0387676,
              34.9962706
            ],
            [
              -90.038741,
              34.9955503
            ],
            [
              -90.0388504,
              34.9955475
            ],
            [
              -90.0388471,
              34.9954575
            ],
            [
              -90.0380811,
              34.9954767
            ],
            [
              -90.0380778,
              34.9953866
            ],
            [
              -90.0378589,
              34.9953921
            ],
            [
              -90.0378623,
              34.9954821
            ],
            [
              -90.0377528,
              34.9954849
            ],
            [
              -90.0377562,
              34.9955749
            ],
            [
              -90.0378656,
              34.9955722
            ],
            [
              -90.0378689,
              34.9956622
            ],
            [
              -90.0376501,
              34.9956677
            ],
            [
              -90.0376534,
              34.9957578
            ],
            [
              -90.037544,
              34.9957605
            ],
            [
              -90.0375406,
              34.9956705
            ],
            [
              -90.0374312,
              34.9956732
            ],
            [
              -90.0374279,
              34.9955832
            ],
            [
              -90.037209,
              34.9955886
            ],
            [
              -90.0372124,
              34.9956787
            ],
            [
              -90.0373218,
              34.9956759
            ],
            [
              -90.0373251,
              34.995766
            ],
            [
              -90.0368874,
              34.9957769
            ],
            [
              -90.0368907,
              34.995867
            ],
            [
              -90.0367813,
              34.9958697
            ],
            [
              -90.0367846,
              34.9959598
            ],
            [
              -90.0368941,
              34.995957
            ],
            [
              -90.0369007,
              34.9961371
            ],
            [
              -90.0367913,
              34.9961399
            ],
            [
              -90.0368079,
              34.9965901
            ],
            [
              -90.0369174,
              34.9965874
            ],
            [
              -90.0369207,
              34.9966774
            ],
            [
              -90.0370301,
              34.9966747
            ],
            [
              -90.0370401,
              34.9969448
            ],
            [
              -90.0369307,
              34.9969476
            ],
            [
              -90.036934,
              34.9970376
            ],
            [
              -90.0370434,
              34.9970349
            ],
            [
              -90.0370501,
              34.997215
            ],
            [
              -90.0369407,
              34.9972177
            ],
            [
              -90.0369607,
              34.997758
            ],
            [
              -90.0370701,
              34.9977553
            ],
            [
              -90.0370767,
              34.9979353
            ],
            [
              -90.0372956,
              34.9979299
            ],
            [
              -90.0373023,
              34.99811
            ],
            [
              -90.0374117,
              34.9981072
            ],
            [
              -90.037405,
              34.9979271
            ],
            [
              -90.0375145,
              34.9979244
            ],
            [
              -90.0374978,
              34.9974741
            ],
            [
              -90.0376072,
              34.9974714
            ],
            [
              -90.0376206,
              34.9978316
            ],
            [
              -90.03773,
              34.9978289
            ],
            [
              -90.0377333,
              34.9979189
            ],
            [
              -90.0378428,
              34.9979162
            ],
            [
              -90.0378461,
              34.9980062
            ],
            [
              -90.0379555,
              34.9980035
            ],
            [
              -90.0379588,
              34.9980935
            ],
            [
              -90.0381777,
              34.998088
            ],
            [
              -90.038191,
              34.9984482
            ],
            [
              -90.0379722,
              34.9984537
            ],
            [
              -90.0379755,
              34.9985438
            ],
            [
              -90.0378661,
              34.9985465
            ],
            [
              -90.0378694,
              34.9986365
            ],
            [
              -90.0379788,
              34.9986338
            ],
            [
              -90.0379888,
              34.9989039
            ],
            [
              -90.0378794,
              34.9989067
            ],
            [
              -90.0379327,
              35.0003474
            ],
            [
              -90.0378233,
              35.0003502
            ],
            [
              -90.0378366,
              35.0007104
            ],
            [
              -90.0377272,
              35.0007131
            ],
            [
              -90.0377305,
              35.0008032
            ],
            [
              -90.037621,
              35.0008059
            ],
            [
              -90.0376244,
              35.0008959
            ],
            [
              -90.0378432,
              35.0008905
            ],
            [
              -90.0378466,
              35.0009805
            ],
            [
              -90.0385032,
              35.0009641
            ],
            [
              -90.0385065,
              35.0010541
            ],
            [
              -90.0386159,
              35.0010514
            ],
            [
              -90.0386126,
              35.0009613
            ],
            [
              -90.0389409,
              35.0009531
            ],
            [
              -90.0389376,
              35.000863
            ],
            [
              -90.039047,
              35.0008603
            ],
            [
              -90.0390537,
              35.0010404
            ],
            [
              -90.0391631,
              35.0010377
            ],
            [
              -90.0391598,
              35.0009476
            ],
            [
              -90.0392692,
              35.0009449
            ],
            [
              -90.0392725,
              35.0010349
            ],
            [
              -90.0394914,
              35.0010294
            ],
            [
              -90.0394948,
              35.0011195
            ],
            [
              -90.0396042,
              35.0011167
            ]
          ],
          [
            [
              -90.0394781,
              35.0006692
            ],
            [
              -90.0393687,
              35.000672
            ],
            [
              -90.0393653,
              35.0005819
            ],
            [
              -90.039037,
              35.0005902
            ],
            [
              -90.0390404,
              35.0006802
            ],
            [
              -90.0389309,
              35.000683
            ],
            [
              -90.0389043,
              34.9999626
            ],
            [
              -90.0390137,
              34.9999598
            ],
            [
              -90.0390104,
              34.9998698
            ],
            [
              -90.0394481,
              34.9998588
            ],
            [
              -90.0394514,
              34.9999489
            ],
            [
              -90.0395609,
              34.9999461
            ],
            [
              -90.0395642,
              35.0000362
            ],
            [
              -90.0396736,
              35.0000334
            ],
            [
              -90.039677,
              35.0001235
            ],
            [
              -90.0397864,
              35.0001207
            ],
            [
              -90.0397897,
              35.0002108
            ],
            [
              -90.0396803,
              35.0002135
            ],
            [
              -90.0396903,
              35.0004837
            ],
            [
              -90.0394714,
              35.0004891
            ],
            [
              -90.0394781,
              35.0006692
            ]
          ],
          [
            [
              -90.0385793,
              35.0000608
            ],
            [
              -90.0384699,
              35.0000636
            ],
            [
              -90.0384632,
              34.9998835
            ],
            [
              -90.0385726,
              34.9998808
            ],
            [
              -90.0385793,
              35.0000608
            ]
          ],
          [
            [
              -90.0401047,
              34.9998424
            ],
            [
              -90.0399952,
              34.9998451
            ],
            [
              -90.0399919,
              34.9997551
            ],
            [
              -90.0401013,
              34.9997523
            ],
            [
              -90.0401047,
              34.9998424
            ]
          ],
          [
            [
              -90.0389009,
              34.9998725
            ],
            [
              -90.0387915,
              34.9998753
            ],
            [
              -90.0387182,
              34.9978942
            ],
            [
              -90.0388276,
              34.9978915
            ],
            [
              -90.038821,
              34.9977114
            ],
            [
              -90.0390398,
              34.9977059
            ],
            [
              -90.0390998,
              34.9993268
            ],
            [
              -90.0389904,
              34.9993295
            ],
            [
              -90.039007,
              34.9997797
            ],
            [
              -90.0388976,
              34.9997825
            ],
            [
              -90.0389009,
              34.9998725
            ]
          ],
          [
            [
              -90.03771,
              34.9972886
            ],
            [
              -90.0376006,
              34.9972913
            ],
            [
              -90.0375939,
              34.9971112
            ],
            [
              -90.0377033,
              34.9971085
            ],
            [
              -90.03771,
              34.9972886
            ]
          ]
        ],
        "type": "Polygon"
      },
      "id": "change-proposal-5",
      "properties": {
        "area_m2": 123800.0,
        "class": "large_spectral_change_candidate",
        "identity_claim": false,
        "review_required": true
      },
      "type": "Feature"
    },
    {
      "geometry": {
        "coordinates": [
          [
            [
              -90.0363698,
              34.9936268
            ],
            [
              -90.0363665,
              34.9935367
            ],
            [
              -90.0364759,
              34.993534
            ],
            [
              -90.0364726,
              34.9934439
            ],
            [
              -90.0363631,
              34.9934467
            ],
            [
              -90.0363598,
              34.9933566
            ],
            [
              -90.034609,
              34.9934004
            ],
            [
              -90.0346057,
              34.9933104
            ],
            [
              -90.0343869,
              34.9933159
            ],
            [
              -90.0343902,
              34.9934059
            ],
            [
              -90.0342808,
              34.9934087
            ],
            [
              -90.0342774,
              34.9933186
            ],
            [
              -90.034168,
              34.9933213
            ],
            [
              -90.0341713,
              34.9934114
            ],
            [
              -90.0340619,
              34.9934141
            ],
            [
              -90.0340586,
              34.9933241
            ],
            [
              -90.0318701,
              34.9933788
            ],
            [
              -90.0318767,
              34.9935589
            ],
            [
              -90.0319862,
              34.9935562
            ],
            [
              -90.0319895,
              34.9936462
            ],
            [
              -90.033412,
              34.9936106
            ],
            [
              -90.0334087,
              34.9935206
            ],
            [
              -90.0335181,
              34.9935179
            ],
            [
              -90.0335214,
              34.9936079
            ],
            [
              -90.0356005,
              34.9935559
            ],
            [
              -90.0356038,
              34.9936459
            ],
            [
              -90.0357133,
              34.9936432
            ],
            [
              -90.0357099,
              34.9935532
            ],
            [
              -90.0359288,
              34.9935477
            ],
            [
              -90.0359321,
              34.9936377
            ],
            [
              -90.0360415,
              34.993635
            ],
            [
              -90.0360382,
              34.9935449
            ],
            [
              -90.036257,
              34.9935395
            ],
            [
              -90.0362604,
              34.9936295
            ],
            [
              -90.0363698,
              34.9936268
            ]
          ]
        ],
        "type": "Polygon"
      },
      "id": "change-proposal-6",
      "properties": {
        "area_m2": 10700.0,
        "class": "large_spectral_change_candidate",
        "identity_claim": false,
        "review_required": true
      },
      "type": "Feature"
    },
    {
      "geometry": {
        "coordinates": [
          [
            [
              -90.0316773,
              34.988156
            ],
            [
              -90.0316707,
              34.9879759
            ],
            [
              -90.0317801,
              34.9879732
            ],
            [
              -90.0317735,
              34.9877931
            ],
            [
              -90.0316641,
              34.9877958
            ],
            [
              -90.0316607,
              34.9877058
            ],
            [
              -90.0317701,
              34.987703
            ],
            [
              -90.0317137,
              34.9861722
            ],
            [
              -90.0318231,
              34.9861695
            ],
            [
              -90.0318197,
              34.9860794
            ],
            [
              -90.0317103,
              34.9860822
            ],
            [
              -90.0316937,
              34.9856319
            ],
            [
              -90.0314749,
              34.9856374
            ],
            [
              -90.0314782,
              34.9857275
            ],
            [
              -90.0309311,
              34.9857411
            ],
            [
              -90.0309345,
              34.9858312
            ],
            [
              -90.0308251,
              34.9858339
            ],
            [
              -90.0308217,
              34.9857439
            ],
            [
              -90.0307123,
              34.9857466
            ],
            [
              -90.0307223,
              34.9860167
            ],
            [
              -90.0306129,
              34.9860195
            ],
            [
              -90.0306195,
              34.9861996
            ],
            [
              -90.0308383,
              34.9861941
            ],
            [
              -90.0308417,
              34.9862842
            ],
            [
              -90.0307322,
              34.9862869
            ],
            [
              -90.0307455,
              34.9866471
            ],
            [
              -90.0306361,
              34.9866498
            ],
            [
              -90.0306394,
              34.9867399
            ],
            [
              -90.03053,
              34.9867426
            ],
            [
              -90.03054,
              34.9870127
            ],
            [
              -90.0306494,
              34.98701
            ],
            [
              -90.030656,
              34.9871901
            ],
            [
              -90.0305466,
              34.9871928
            ],
            [
              -90.03055,
              34.9872829
            ],
            [
              -90.0307688,
              34.9872774
            ],
            [
              -90.0307821,
              34.9876376
            ],
            [
              -90.0308915,
              34.9876349
            ],
            [
              -90.0308981,
              34.987815
            ],
            [
              -90.0307887,
              34.9878177
            ],
            [
              -90.030792,
              34.9879078
            ],
            [
              -90.0309015,
              34.987905
            ],
            [
              -90.0309081,
              34.9880851
            ],
            [
              -90.0314552,
              34.9880714
            ],
            [
              -90.0314585,
              34.9881615
            ],
            [
              -90.0316773,
              34.988156
            ]
          ]
        ],
        "type": "Polygon"
      },
      "id": "change-proposal-7",
      "properties": {
        "area_m2": 24400.0,
        "class": "large_spectral_change_candidate",
        "identity_claim": false,
        "review_required": true
      },
      "type": "Feature"
    },
    {
      "geometry": {
        "coordinates": [
          [
            [
              -90.0418258,
              34.9842066
            ],
            [
              -90.0418225,
              34.9841165
            ],
            [
              -90.0419319,
              34.9841138
            ],
            [
              -90.0419286,
              34.9840238
            ],
            [
              -90.0421474,
              34.9840183
            ],
            [
              -90.0421507,
              34.9841083
            ],
            [
              -90.0426978,
              34.9840946
            ],
            [
              -90.0426945,
              34.9840045
            ],
            [
              -90.0428039,
              34.9840018
            ],
            [
              -90.0427739,
              34.9831914
            ],
            [
              -90.0428833,
              34.9831886
            ],
            [
              -90.0428766,
              34.9830085
            ],
            [
              -90.0427672,
              34.9830113
            ],
            [
              -90.0427605,
              34.9828312
            ],
            [
              -90.0428699,
              34.9828284
            ],
            [
              -90.0428266,
              34.9816578
            ],
            [
              -90.042936,
              34.9816551
            ],
            [
              -90.0429326,
              34.981565
            ],
            [
              -90.0427138,
              34.9815705
            ],
            [
              -90.0427105,
              34.9814805
            ],
            [
              -90.0423823,
              34.9814887
            ],
            [
              -90.0423856,
              34.9815788
            ],
            [
              -90.0420574,
              34.981587
            ],
            [
              -90.0420541,
              34.9814969
            ],
            [
              -90.0418352,
              34.9815024
            ],
            [
              -90.0418386,
              34.9815925
            ],
            [
              -90.041948,
              34.9815897
            ],
            [
              -90.0419513,
              34.9816798
            ],
            [
              -90.0418419,
              34.9816825
            ],
            [
              -90.0418452,
              34.9817726
            ],
            [
              -90.0419546,
              34.9817698
            ],
            [
              -90.041958,
              34.9818599
            ],
            [
              -90.0418486,
              34.9818626
            ],
            [
              -90.0418619,
              34.9822228
            ],
            [
              -90.0417525,
              34.9822256
            ],
            [
              -90.0417558,
              34.9823156
            ],
            [
              -90.0418652,
              34.9823129
            ],
            [
              -90.0418686,
              34.9824029
            ],
            [
              -90.0415403,
              34.9824111
            ],
            [
              -90.041547,
              34.9825912
            ],
            [
              -90.0414376,
              34.982594
            ],
            [
              -90.0414743,
              34.9835845
            ],
            [
              -90.0413649,
              34.9835872
            ],
            [
              -90.0413782,
              34.9839474
            ],
            [
              -90.0412688,
              34.9839502
            ],
            [
              -90.0412721,
              34.9840402
            ],
            [
              -90.0413815,
              34.9840375
            ],
            [
              -90.0413882,
              34.9842176
            ],
            [
              -90.0418258,
              34.9842066
            ]
          ]
        ],
        "type": "Polygon"
      },
      "id": "change-proposal-8",
      "properties": {
        "area_m2": 32700.0,
        "class": "large_spectral_change_candidate",
        "identity_claim": false,
        "review_required": true
      },
      "type": "Feature"
    },
    {
      "geometry": {
        "coordinates": [
          [
            [
              -90.0382814,
              34.9831237
            ],
            [
              -90.0382781,
              34.9830337
            ],
            [
              -90.0383875,
              34.9830309
            ],
            [
              -90.0383808,
              34.9828508
            ],
            [
              -90.0384902,
              34.9828481
            ],
            [
              -90.0384802,
              34.982578
            ],
            [
              -90.0388085,
              34.9825697
            ],
            [
              -90.0388051,
              34.9824797
            ],
            [
              -90.0389145,
              34.9824769
            ],
            [
              -90.0389112,
              34.9823869
            ],
            [
              -90.0390206,
              34.9823842
            ],
            [
              -90.0390106,
              34.982114
            ],
            [
              -90.0389012,
              34.9821168
            ],
            [
              -90.0388979,
              34.9820267
            ],
            [
              -90.0390073,
              34.982024
            ],
            [
              -90.0389906,
              34.9815737
            ],
            [
              -90.0387718,
              34.9815792
            ],
            [
              -90.0387685,
              34.9814892
            ],
            [
              -90.0384403,
              34.9814974
            ],
            [
              -90.0384602,
              34.9820377
            ],
            [
              -90.0383508,
              34.9820404
            ],
            [
              -90.0383575,
              34.9822205
            ],
            [
              -90.0384669,
              34.9822178
            ],
            [
              -90.0384736,
              34.9823979
            ],
            [
              -90.0383642,
              34.9824006
            ],
            [
              -90.0383741,
              34.9826707
            ],
            [
              -90.0382647,
              34.9826735
            ],
            [
              -90.0382614,
              34.9825834
            ],
            [
              -90.038152,
              34.9825862
            ],
            [
              -90.0381487,
              34.9824961
            ],
            [
              -90.0380393,
              34.9824989
            ],
            [
              -90.038006,
              34.9815984
            ],
            [
              -90.0378966,
              34.9816011
            ],
            [
              -90.0378733,
              34.9809708
            ],
            [
              -90.0379827,
              34.9809681
            ],
            [
              -90.0379627,
              34.9804278
            ],
            [
              -90.0378533,
              34.9804305
            ],
            [
              -90.03785,
              34.9803405
            ],
            [
              -90.0377405,
              34.9803432
            ],
            [
              -90.0377372,
              34.9802532
            ],
            [
              -90.037409,
              34.9802614
            ],
            [
              -90.0374123,
              34.9803514
            ],
            [
              -90.0373029,
              34.9803542
            ],
            [
              -90.0373062,
              34.9804442
            ],
            [
              -90.0374157,
              34.9804415
            ],
            [
              -90.037419,
              34.9805315
            ],
            [
              -90.0375284,
              34.9805288
            ],
            [
              -90.0375317,
              34.9806188
            ],
            [
              -90.0369847,
              34.9806325
            ],
            [
              -90.0370013,
              34.9810828
            ],
            [
              -90.0368919,
              34.9810855
            ],
            [
              -90.0368952,
              34.9811755
            ],
            [
              -90.0367858,
              34.9811783
            ],
            [
              -90.0367825,
              34.9810882
            ],
            [
              -90.0366731,
              34.981091
            ],
            [
              -90.0366798,
              34.9812711
            ],
            [
              -90.0367892,
              34.9812683
            ],
            [
              -90.0367925,
              34.9813584
            ],
            [
              -90.0366831,
              34.9813611
            ],
            [
              -90.0366931,
              34.9816313
            ],
            [
              -90.0365837,
              34.981634
            ],
            [
              -90.0365903,
              34.9818141
            ],
            [
              -90.0366997,
              34.9818114
            ],
            [
              -90.036723,
              34.9824417
            ],
            [
              -90.0368324,
              34.982439
            ],
            [
              -90.0368424,
              34.9827091
            ],
            [
              -90.0369518,
              34.9827064
            ],
            [
              -90.0369551,
              34.9827964
            ],
            [
              -90.037174,
              34.9827909
            ],
            [
              -90.0371773,
              34.982881
            ],
            [
              -90.0372867,
              34.9828782
            ],
            [
              -90.03729,
              34.9829683
            ],
            [
              -90.0373994,
              34.9829655
            ],
            [
              -90.0374028,
              34.9830556
            ],
            [
              -90.0376216,
              34.9830501
            ],
            [
              -90.0376249,
              34.9831402
            ],
            [
              -90.0379531,
              34.9831319
            ],
            [
              -90.0379498,
              34.9830419
            ],
            [
              -90.0380592,
              34.9830392
            ],
            [
              -90.0380626,
              34.9831292
            ],
            [
              -90.0382814,
              34.9831237
            ]
          ]
        ],
        "type": "Polygon"
      },
      "id": "change-proposal-9",
      "properties": {
        "area_m2": 38000.0,
        "class": "large_spectral_change_candidate",
        "identity_claim": false,
        "review_required": true
      },
      "type": "Feature"
    }
  ],
  "properties": {
    "algorithm_version": "sentinel-2-l2a-change-v1",
    "meaning": "imagery change proposal only; not a data-centre identification"
  },
  "type": "FeatureCollection"
}
