{"features":[{"geometry":{"coordinates":[71.4577083333,51.2067694444],"type":"Point"},"id":"vcc-site-cc8bbdad8c252d9ba4e2","properties":{"country":"Kazakhstan","geometry_precision_scopes":["Official site-plan point for a substation within the same data-centre parcel; 500 metre stated uncertainty and not a hall footprint."],"geometry_scope_classes":["same_parcel_infrastructure_reference_point"],"geometry_type":"Point","horizontal_uncertainty_metres":500.0,"independent_imagery_verification":false,"name":"Akashi Astana Data Center Campus","newest_status_as_of":"2026-07-21","physical_site_stable_key":"curated:akashi-astana-data-center-campus","project_count":1,"site_id":"vcc-site-cc8bbdad8c252d9ba4e2","statuses":["under_construction"],"verification_posture":"recent_authoritative_physical_observation_plus_reviewed_site_locator"},"type":"Feature"},{"geometry":{"coordinates":[24.1814716538,56.933100002],"type":"Point"},"id":"vcc-site-fe9285f72381fc346e86","properties":{"country":"Latvia","geometry_precision_scopes":["Current Latvian State Land Service address-register point, facility-specific, with 20 metre stated uncertainty."],"geometry_scope_classes":["facility_address_point"],"geometry_type":"Point","horizontal_uncertainty_metres":20.0,"independent_imagery_verification":false,"name":"AST Jāņciems Dispatcher Control and Data Centre","newest_status_as_of":"2026-06-27","physical_site_stable_key":"curated:ast-janciems-dispatcher-control-data-center","project_count":1,"site_id":"vcc-site-fe9285f72381fc346e86","statuses":["shell"],"verification_posture":"recent_authoritative_physical_observation_plus_reviewed_site_locator"},"type":"Feature"},{"geometry":{"coordinates":[-90.0185,32.2593],"type":"Point"},"id":"vcc-site-6727a9539ece2f19ad23","properties":{"country":"United States","geometry_precision_scopes":["First-party Taurus campus location point derived exactly from the published latitude and longitude; not the 329-acre boundary, a parcel, building footprint, measured centroid, or phase-one outline."],"geometry_scope_classes":["first_party_campus_reference_point"],"geometry_type":"Point","horizontal_uncertainty_metres":null,"independent_imagery_verification":false,"name":"AVAIO Digital Taurus Data Center Campus","newest_status_as_of":"2026-07-20","physical_site_stable_key":"curated:avaio-taurus-brandon-mississippi-campus","project_count":1,"site_id":"vcc-site-6727a9539ece2f19ad23","statuses":["under_construction"],"verification_posture":"recent_authoritative_physical_observation_plus_reviewed_site_locator"},"type":"Feature"},{"geometry":{"coordinates":[150.837668,-33.818072],"type":"Point"},"id":"vcc-site-3c1f872aa59b74b065ea","properties":{"country":"Australia","geometry_precision_scopes":["Official NSW project-site representative point for the shared Eastern Creek campus; not an EC5 building footprint.","Official NSW project-site representative point for the shared Eastern Creek campus; not an EC6 building footprint."],"geometry_scope_classes":["shared_campus_reference_point"],"geometry_type":"Point","horizontal_uncertainty_metres":250.0,"independent_imagery_verification":false,"name":"CDC Eastern Creek Campus","newest_status_as_of":"2026-07-21","physical_site_stable_key":"curated:cdc-eastern-creek-campus","project_count":2,"site_id":"vcc-site-3c1f872aa59b74b065ea","statuses":["under_construction"],"verification_posture":"recent_authoritative_physical_observation_plus_reviewed_site_locator"},"type":"Feature"},{"geometry":{"coordinates":[[[-104.963184722902,39.7856242412933],[-104.963179734656,39.7863032468357],[-104.963175995665,39.7863414056315],[-104.963165423572,39.7863787939894],[-104.963165323691,39.7863790313089],[-104.963154106409,39.7864175160577],[-104.963150145341,39.7864568432731],[-104.963148623641,39.7866638850603],[-104.963146455246,39.78667993711],[-104.963140269725,39.7866953544454],[-104.963130304737,39.7867095446967],[-104.96311694316,39.7867219626412],[-104.963100698373,39.786732131152],[-104.963082194541,39.7867396595307],[-104.963062142623,39.786744258519],[-104.963041313063,39.7867457514126],[-104.962568186015,39.7867436812468],[-104.962568367245,39.7867189814144],[-104.962547023802,39.7867188876023],[-104.962547810723,39.7866118546995],[-104.962435362935,39.7866113621219],[-104.96241771334,39.786609972382],[-104.962400732488,39.7866060081017],[-104.962391708499,39.7866018525524],[-104.962384652022,39.786595844242],[-104.962380178868,39.7865885075093],[-104.962378679404,39.7865804826228],[-104.962378915748,39.786548454352],[-104.962376287447,39.7865379453045],[-104.962368649095,39.7865290108154],[-104.962359545114,39.7865219062551],[-104.962362761218,39.7860851537574],[-104.962382326547,39.7860852394855],[-104.962382528891,39.786057795425],[-104.96236296357,39.7860577096969],[-104.962366600434,39.7855638174078],[-104.96238581252,39.7855390132134],[-104.962411330955,39.7855178626754],[-104.962475432584,39.7855181418025],[-104.96247563688,39.7854902861421],[-104.962502046009,39.7854856685812],[-104.962529057635,39.7854841974335],[-104.963007903308,39.7854862929751],[-104.96304255837,39.7854890736954],[-104.963075845586,39.7854970140258],[-104.963106487262,39.7855098091853],[-104.96313330725,39.7855269680459],[-104.963155276089,39.7855478319825],[-104.963171550524,39.7855716001546],[-104.96318150587,39.7855973602445],[-104.963184759994,39.7856241234756],[-104.963184759663,39.7856241667059],[-104.963184722902,39.7856242412933]]],"type":"Polygon"},"id":"vcc-site-782c0112e90a5282be53","properties":{"country":"United States","geometry_precision_scopes":["Exact Denver tax-parcel polygon whose returned owner is CoreSite Real Estate DE3 LLC; not a building footprint."],"geometry_scope_classes":["tax_parcel_boundary"],"geometry_type":"Polygon","horizontal_uncertainty_metres":null,"independent_imagery_verification":false,"name":"CoreSite DE3 Race Street Campus","newest_status_as_of":"2026-07-20","physical_site_stable_key":"curated:coresite-de3-race-street-campus","project_count":1,"site_id":"vcc-site-782c0112e90a5282be53","statuses":["under_construction"],"verification_posture":"recent_authoritative_physical_observation_plus_official_boundary"},"type":"Feature"},{"geometry":{"coordinates":[-88.240996871,41.806967678],"type":"Point"},"id":"vcc-site-9369a9dbb7d04a9e1327","properties":{"country":"United States","geometry_precision_scopes":["Exact City of Aurora address point for 2835 Bilter Road on the Edged Chicago LLC-owned parcel; not an ORD01-2 footprint."],"geometry_scope_classes":["campus_address_point"],"geometry_type":"Point","horizontal_uncertainty_metres":null,"independent_imagery_verification":false,"name":"Edged Chicago Aurora Data Center Campus","newest_status_as_of":"2026-06-04","physical_site_stable_key":"curated:edged-chicago-aurora-campus","project_count":1,"site_id":"vcc-site-9369a9dbb7d04a9e1327","statuses":["shell"],"verification_posture":"recent_authoritative_physical_observation_plus_reviewed_site_locator"},"type":"Feature"},{"geometry":{"coordinates":[0.130495857,51.770073603],"type":"Point"},"id":"vcc-site-c48f4a7325dfc30566cd","properties":{"country":"United Kingdom","geometry_precision_scopes":["Campus-centre point derived deterministically from EPSG:27700 easting 547101 and northing 210080 supplied by the government-hosted KLON-03 site report. It is not a parcel, campus boundary, KLON-03 building centroid or footprint, and the report states no horizontal positional accuracy."],"geometry_scope_classes":["government_report_campus_centre_point"],"geometry_type":"Point","horizontal_uncertainty_metres":null,"independent_imagery_verification":false,"name":"KAO Data Harlow Campus","newest_status_as_of":"2026-05-26","physical_site_stable_key":"curated:kao-data-harlow-campus","project_count":1,"site_id":"vcc-site-c48f4a7325dfc30566cd","statuses":["under_construction"],"verification_posture":"recent_authoritative_physical_observation_plus_reviewed_site_locator"},"type":"Feature"},{"geometry":{"coordinates":[22.0132502617,56.9356302057],"type":"Point"},"id":"vcc-site-cc86e5f5e64a0438e8c1","properties":{"country":"Latvia","geometry_precision_scopes":["Government cadastral reference point for the reported 113,200 square metre project parcel; 300 metre stated uncertainty."],"geometry_scope_classes":["parcel_reference_point"],"geometry_type":"Point","horizontal_uncertainty_metres":300.0,"independent_imagery_verification":false,"name":"LVRTC Pozitrons Kurzeme Data Center","newest_status_as_of":"2026-06-30","physical_site_stable_key":"curated:lvrtc-pozitrons-kurzeme-data-center","project_count":1,"site_id":"vcc-site-cc86e5f5e64a0438e8c1","statuses":["under_construction"],"verification_posture":"recent_authoritative_physical_observation_plus_reviewed_site_locator"},"type":"Feature"},{"geometry":{"coordinates":[12.8929999,52.5935],"type":"Point"},"id":"vcc-site-75fed87a1b38b8cd7280","properties":{"country":"Germany","geometry_precision_scopes":["First-party BER02/mainHub Nauen location point derived exactly from the published latitude and longitude; not a parcel, building outline, footprint, or measured centroid."],"geometry_scope_classes":["first_party_shared_campus_reference_point"],"geometry_type":"Point","horizontal_uncertainty_metres":null,"independent_imagery_verification":false,"name":"maincubes mainHub Nauen Campus","newest_status_as_of":"2026-07-19","physical_site_stable_key":"curated:maincubes-mainhub-nauen-campus","project_count":1,"site_id":"vcc-site-75fed87a1b38b8cd7280","statuses":["under_construction"],"verification_posture":"recent_authoritative_physical_observation_plus_reviewed_site_locator"},"type":"Feature"},{"geometry":{"coordinates":[-70.67394,-33.36636],"type":"Point"},"id":"vcc-site-942a847c35703b15ea18","properties":{"country":"Chile","geometry_precision_scopes":["Official Chilean environmental-review representative point for expediente 2162968448, rounded to five decimals with a conservative 50 metre analyst envelope. It is a project/site locator, not a parcel, campus boundary, building footprint, measured centroid, or survey-accuracy claim."],"geometry_scope_classes":["official_environmental_review_project_reference_point"],"geometry_type":"Point","horizontal_uncertainty_metres":50.0,"independent_imagery_verification":false,"name":"Scala Huechuraba Campus","newest_status_as_of":"2026-07-21","physical_site_stable_key":"curated:scala-huechuraba-campus","project_count":1,"site_id":"vcc-site-942a847c35703b15ea18","statuses":["under_construction"],"verification_posture":"recent_authoritative_physical_observation_plus_reviewed_site_locator"},"type":"Feature"},{"geometry":{"coordinates":[-70.73915,-33.29298],"type":"Point"},"id":"vcc-site-443900b22a794305df17","properties":{"country":"Chile","geometry_precision_scopes":["Official Chilean environmental-review representative point for expediente 2152920300, rounded to five decimals with a conservative 50 metre analyst envelope. It is a project/site locator, not a parcel, campus boundary, building footprint, measured centroid, or survey-accuracy claim."],"geometry_scope_classes":["official_environmental_review_project_reference_point"],"geometry_type":"Point","horizontal_uncertainty_metres":50.0,"independent_imagery_verification":false,"name":"Scala Lampa Campus","newest_status_as_of":"2026-07-21","physical_site_stable_key":"curated:scala-lampa-campus","project_count":1,"site_id":"vcc-site-443900b22a794305df17","statuses":["under_construction"],"verification_posture":"recent_authoritative_physical_observation_plus_reviewed_site_locator"},"type":"Feature"},{"geometry":{"coordinates":[[[-38.458162,-3.753499],[-38.45902,-3.753223],[-38.45784,-3.749518],[-38.456983,-3.749794],[-38.458162,-3.753499]]],"type":"Polygon"},"id":"vcc-site-b12dddd73cb490c6bb64","properties":{"country":"Brazil","geometry_precision_scopes":["Polygon transformed from the four surveyed project-boundary vertices in the official municipal plan; 5 metre stated uncertainty."],"geometry_scope_classes":["surveyed_project_boundary"],"geometry_type":"Polygon","horizontal_uncertainty_metres":5.0,"independent_imagery_verification":false,"name":"Scala Praia do Futuro Campus","newest_status_as_of":"2026-07-21","physical_site_stable_key":"curated:scala-praia-do-futuro-campus","project_count":1,"site_id":"vcc-site-b12dddd73cb490c6bb64","statuses":["under_construction"],"verification_posture":"recent_authoritative_physical_observation_plus_official_boundary"},"type":"Feature"},{"geometry":{"coordinates":[23.90870178233002,37.96626241294147],"type":"Point"},"id":"vcc-site-10c105346f5cad5b0aa5","properties":{"country":"Greece","geometry_precision_scopes":["First-party project map point, facility-specific, with 50 metre stated horizontal uncertainty."],"geometry_scope_classes":["facility_reference_point"],"geometry_type":"Point","horizontal_uncertainty_metres":50.0,"independent_imagery_verification":false,"name":"Ten Brinke Spata Data Center","newest_status_as_of":"2026-07-21","physical_site_stable_key":"curated:ten-brinke-spata-data-center","project_count":1,"site_id":"vcc-site-10c105346f5cad5b0aa5","statuses":["under_construction"],"verification_posture":"recent_authoritative_physical_observation_plus_reviewed_site_locator"},"type":"Feature"},{"geometry":{"coordinates":[[[25.28186318450449,60.63524801718477],[25.282821333622106,60.63344684080821],[25.283174529253323,60.633492871877664],[25.288848570957793,60.63423216521858],[25.2901751032975,60.63530906972012],[25.290507868886902,60.63557917921867],[25.289648316678505,60.63714634286547],[25.28882597202742,60.63679805612663],[25.28663041236235,60.63586806167368],[25.28186318450449,60.63524801718477]]],"type":"Polygon"},"id":"vcc-site-00808116377785b5c125","properties":{"country":"Finland","geometry_precision_scopes":["Exact municipal cadastral polygon for property 505-407-7-137, inherited through the explicit project-to-campus link; it is the full campus parcel, not a building or the current 70 MW development footprint."],"geometry_scope_classes":["official_cadastral_campus_parcel_boundary"],"geometry_type":"Polygon","horizontal_uncertainty_metres":null,"independent_imagery_verification":false,"name":"Verne Mäntsälä Data Center Campus","newest_status_as_of":"2026-06-17","physical_site_stable_key":"curated:verne-mantsala-data-center-campus","project_count":1,"site_id":"vcc-site-00808116377785b5c125","statuses":["under_construction"],"verification_posture":"recent_authoritative_physical_observation_plus_official_boundary"},"type":"Feature"}],"name":"Data Center Atlas Verified Construction Core preview","release_status":"preview","type":"FeatureCollection"}
